{"type":"FeatureCollection","features":[{"id":"2d4b9f73-5037-4823-92b9-2084675e7d8d","type":"Feature","geometry":{"type":"Polygon","coordinates":[[[126.8724732,37.4861109],[126.8723288,37.485726],[126.8718436,37.4852451],[126.8718672,37.4850594],[126.8718928,37.484955],[126.8723496,37.4844944],[126.8732656,37.4842303],[126.873325,37.4841427],[126.872941,37.4837096],[126.8727815,37.4824872],[126.8731922,37.4822317],[126.8733787,37.4824336],[126.8736551,37.4818199],[126.873718,37.4816807],[126.8741815,37.4806558],[126.8742075,37.4806057],[126.8741787,37.4805525],[126.8741986,37.4804796],[126.8742349,37.4804416],[126.8742655,37.4804168],[126.8753308,37.4783532],[126.8755459,37.4779517],[126.8759854,37.4771038],[126.8768389,37.475723],[126.8773306,37.4749275],[126.8773306,37.4749274],[126.8778734,37.4740502],[126.8780111,37.4738277],[126.8800395,37.4712147],[126.8802042,37.470935],[126.8803249,37.4707926],[126.8804057,37.4707406],[126.8804428,37.4707167],[126.8805478,37.4705924],[126.8813603,37.4696783],[126.8815927,37.4694168],[126.8814682,37.4691565],[126.8814465,37.468996],[126.8814593,37.4688797],[126.8815109,37.468721],[126.8816309,37.4684592],[126.8818713,37.4682725],[126.8819471,37.4682137],[126.8821011,37.4681483],[126.8821364,37.4681319],[126.8824233,37.4679983],[126.8825295,37.4679339],[126.8826108,37.4678512],[126.8826525,37.4678082],[126.8827215,37.4677117],[126.8830138,37.4670644],[126.8832757,37.4668565],[126.8839942,37.4666686],[126.8842494,37.4665298],[126.8843168,37.4664696],[126.8843278,37.4664521],[126.8846173,37.4660123],[126.8845935,37.4658051],[126.8845682,37.4656547],[126.8843445,37.4654574],[126.884185,37.4653851],[126.8838516,37.4653105],[126.8837888,37.4652859],[126.8831472,37.4651285],[126.8829279,37.4650041],[126.8828732,37.4649615],[126.8827733,37.4648291],[126.8827453,37.4643909],[126.8828526,37.4642672],[126.8831482,37.4639262],[126.8834183,37.4636745],[126.8838529,37.4632243],[126.884206,37.4628254],[126.8843168,37.4627239],[126.8843369,37.4627172],[126.8848577,37.4625431],[126.885141,37.462468],[126.8853191,37.4624881],[126.8854563,37.4625257],[126.8858354,37.4627021],[126.8860086,37.462745],[126.8860443,37.4627465],[126.8862446,37.4627982],[126.8866435,37.4628667],[126.8870431,37.4629023],[126.8871215,37.4629044],[126.8876953,37.4622628],[126.8888752,37.4609469],[126.8887689,37.4608325],[126.8886303,37.4607882],[126.8883356,37.4607808],[126.8878586,37.4609975],[126.8876818,37.4610373],[126.8875252,37.4610554],[126.8874733,37.4610655],[126.8868261,37.4609303],[126.8862535,37.4609267],[126.8861278,37.4608998],[126.8860717,37.4608595],[126.8857648,37.4605123],[126.8856501,37.4604308],[126.8855183,37.4602552],[126.8854434,37.4601245],[126.8854007,37.4600138],[126.8853562,37.4598829],[126.8853493,37.4598626],[126.8853398,37.459637],[126.8853562,37.4595346],[126.8853762,37.4594693],[126.8854177,37.4594166],[126.8855108,37.4593728],[126.8857685,37.4593601],[126.8858529,37.4593532],[126.8859407,37.45934],[126.8861032,37.4592974],[126.8861982,37.4592412],[126.8862284,37.4592096],[126.8862854,37.4591145],[126.8863369,37.4589572],[126.8863643,37.4588176],[126.886374,37.4587145],[126.8863616,37.4585881],[126.8863216,37.4584509],[126.8862385,37.4582926],[126.8861468,37.4581602],[126.8860011,37.4579872],[126.885947,37.4578945],[126.8859143,37.4578179],[126.8858979,37.4577352],[126.8858834,37.4576618],[126.8858689,37.4575883],[126.8858805,37.4575084],[126.8859997,37.4572751],[126.8861086,37.456948],[126.8861274,37.4568025],[126.8861852,37.4565226],[126.8862314,37.4564309],[126.8862644,37.4563625],[126.8862952,37.4563313],[126.8863465,37.4562356],[126.886391,37.4561866],[126.8864371,37.4561621],[126.8865318,37.4561305],[126.8866017,37.4560486],[126.8866815,37.4559279],[126.8868357,37.4557946],[126.8870968,37.4555921],[126.8872412,37.4555036],[126.8873732,37.4554634],[126.8875321,37.4554858],[126.8876601,37.4555372],[126.8878597,37.4555675],[126.8880164,37.4555786],[126.8880706,37.4555553],[126.8881148,37.4555236],[126.8881989,37.4554003],[126.8882097,37.4553678],[126.8882353,37.4552908],[126.8882847,37.4551686],[126.8883408,37.4550896],[126.8887639,37.4547656],[126.8888794,37.4547277],[126.8891632,37.454746],[126.889203,37.4547238],[126.8892853,37.4545749],[126.8892646,37.4544823],[126.8891541,37.4543526],[126.8890314,37.4542087],[126.8890212,37.454167],[126.8890791,37.4539893],[126.8890849,37.4539717],[126.8892715,37.4538662],[126.8895171,37.4537705],[126.8895918,37.453703],[126.8896525,37.4535986],[126.8896662,37.4535217],[126.8896474,37.4533192],[126.8895355,37.4529466],[126.8895134,37.4527779],[126.8895034,37.4527011],[126.8895603,37.4524322],[126.8896419,37.4523155],[126.8897798,37.4522731],[126.8898492,37.4522774],[126.8901475,37.452486],[126.8902095,37.4525041],[126.8903217,37.4524963],[126.8905084,37.4524413],[126.8907242,37.4523199],[126.8910483,37.4522424],[126.8913646,37.4522115],[126.8915675,37.4522291],[126.8916913,37.4522439],[126.8917522,37.4522645],[126.891904,37.4523055],[126.8919635,37.4523044],[126.8921034,37.45228],[126.8922241,37.452205],[126.8923907,37.4519993],[126.8924765,37.4519535],[126.8925879,37.4519491],[126.8926502,37.4519674],[126.8927192,37.4520072],[126.8927592,37.4520393],[126.8930284,37.4525095],[126.8930542,37.4525932],[126.8931422,37.4526859],[126.8932542,37.4527628],[126.8933758,37.4528058],[126.8936137,37.4528234],[126.8937548,37.4527941],[126.8938076,37.4527831],[126.8938665,37.4527609],[126.8939246,37.4527391],[126.8939827,37.4527173],[126.8941785,37.4522192],[126.8942431,37.4520551],[126.8946035,37.4511591],[126.8948146,37.4508623],[126.8949032,37.4506346],[126.8953401,37.4496607],[126.8955672,37.449157],[126.895908,37.4484156],[126.895941,37.4482538],[126.8959957,37.4481617],[126.8960496,37.448043],[126.8959946,37.4480502],[126.8955805,37.4483343],[126.8952345,37.4483745],[126.8950032,37.4482225],[126.8947508,37.4477025],[126.8947258,37.4476307],[126.8946964,37.4473404],[126.8947247,37.4470639],[126.8946498,37.4466981],[126.8946583,37.4466812],[126.8946799,37.4466381],[126.8950084,37.4464526],[126.8953095,37.4462099],[126.8955052,37.4457782],[126.8955773,37.4457436],[126.8957821,37.4456334],[126.8963332,37.4457271],[126.8967639,37.4457044],[126.8969904,37.445615],[126.8972689,37.4454368],[126.8976575,37.4445479],[126.8977626,37.444298],[126.8978446,37.4441079],[126.8987786,37.4420593],[126.8988933,37.4414811],[126.8989986,37.4411788],[126.8992218,37.4410599],[126.8993577,37.4408494],[126.8994902,37.4405966],[126.8999256,37.4395564],[126.8999046,37.439553],[126.8992811,37.4396439],[126.8988663,37.4394054],[126.8988049,37.4393501],[126.8987554,37.4392766],[126.8989869,37.4387262],[126.898978,37.4387003],[126.8989916,37.4386866],[126.898999,37.4386861],[126.8990183,37.4386844],[126.8990334,37.438683],[126.8990684,37.4386783],[126.8991443,37.4386682],[126.8997505,37.4381007],[126.9003577,37.4376548],[126.901185,37.4367789],[126.9012781,37.4366975],[126.9027594,37.4358757],[126.9027714,37.4347637],[126.9029296,37.4341766],[126.9029586,37.4341364],[126.9029742,37.4340531],[126.9030328,37.43405],[126.903176,37.4340653],[126.9031655,37.4341],[126.9040177,37.4340817],[126.9040864,37.4340788],[126.9047904,37.4340258],[126.9052377,37.4339934],[126.9055061,37.4339893],[126.9062801,37.4339406],[126.9067101,37.4338492],[126.9069202,37.4338598],[126.9079504,37.4336201],[126.9087658,37.4336712],[126.9091735,37.4339779],[126.9092808,37.4345402],[126.9098816,37.4354091],[126.9103322,37.435818],[126.9109116,37.4360907],[126.9110833,37.43713],[126.9114051,37.4377263],[126.9119952,37.4383652],[126.9126926,37.4389615],[126.9135402,37.4395408],[126.9141088,37.4400008],[126.9148598,37.4402052],[126.9156537,37.440103],[126.9162653,37.4402478],[126.9169412,37.4401626],[126.9185505,37.4402819],[126.9193874,37.4408441],[126.9199667,37.4413723],[126.9200955,37.4419515],[126.9203959,37.442616],[126.9208894,37.4434507],[126.9211365,37.4439215],[126.9213186,37.4442685],[126.9221125,37.4447966],[126.9228421,37.4455121],[126.9230996,37.4463469],[126.9235716,37.4466194],[126.9244085,37.4469091],[126.9248376,37.447386],[126.9252453,37.447369],[126.925653,37.4478971],[126.9260822,37.4485956],[126.9265328,37.4485956],[126.9266523,37.4487034],[126.9270048,37.4490214],[126.9274769,37.4491748],[126.9280348,37.4495325],[126.9283996,37.4498562],[126.9287644,37.4500946],[126.9290862,37.4501969],[126.9296441,37.4497369],[126.9303308,37.4491577],[126.9305668,37.4486807],[126.9305668,37.4481867],[126.9306097,37.4476586],[126.9307385,37.4469431],[126.9308672,37.4465343],[126.9312106,37.4460062],[126.9316612,37.4454099],[126.9324551,37.4450692],[126.9330559,37.4447114],[126.9338284,37.4442855],[126.9343648,37.444064],[126.9348798,37.443553],[126.9358025,37.4429737],[126.9365106,37.4424285],[126.937047,37.44219],[126.9374547,37.4416449],[126.9379268,37.4409804],[126.9382916,37.4405375],[126.938313,37.4399752],[126.9379697,37.4394471],[126.9379697,37.438953],[126.9379697,37.4383908],[126.9382916,37.4376752],[126.9383203,37.4374299],[126.9383774,37.4369426],[126.9384847,37.4364655],[126.9386134,37.4359543],[126.9388709,37.4353751],[126.9390641,37.4354943],[126.9394288,37.435784],[126.9397722,37.4360736],[126.9400726,37.4360566],[126.9404374,37.4360225],[126.9404649,37.4360201],[126.9410167,37.4359714],[126.9413171,37.4360395],[126.9415961,37.4366359],[126.941875,37.4370277],[126.9422183,37.4374707],[126.942626,37.43759],[126.9429908,37.4376411],[126.9433771,37.4376581],[126.9439779,37.4377774],[126.9444714,37.4375559],[126.9448147,37.4374878],[126.9455872,37.4376922],[126.9460807,37.4379819],[126.946467,37.4382715],[126.9469605,37.4387315],[126.9476686,37.4389189],[126.9481836,37.4390041],[126.9493852,37.4387656],[126.9502435,37.4390382],[126.9509087,37.4388508],[126.9514666,37.4390382],[126.9518743,37.4392426],[126.9522391,37.4395323],[126.9526897,37.4395493],[126.9534407,37.4395493],[126.9538162,37.43943],[126.9544707,37.4392426],[126.9552646,37.43897],[126.955844,37.4389871],[126.9565306,37.4392597],[126.9573245,37.439396],[126.9584189,37.4394812],[126.9587729,37.4397963],[126.9589768,37.4402308],[126.9594274,37.440793],[126.960114,37.4406567],[126.9606934,37.4406226],[126.9616804,37.4407078],[126.9625817,37.440776],[126.9636653,37.4409975],[126.9638262,37.4415171],[126.9647167,37.4421389],[126.9642125,37.4431952],[126.9639764,37.4436552],[126.9639979,37.444064],[126.9640193,37.4445411],[126.9639764,37.4449159],[126.9642374,37.4451569],[126.9646416,37.4455632],[126.964706,37.4458528],[126.9653068,37.4461424],[126.9657789,37.4464321],[126.9661866,37.4462617],[126.9668088,37.4461765],[126.9672809,37.4462617],[126.9676265,37.4464688],[126.9680105,37.446892],[126.9684611,37.4470624],[126.9688044,37.4469261],[126.9695983,37.446875],[126.9698558,37.4472498],[126.9704995,37.4471475],[126.9708429,37.4475564],[126.9714866,37.4474883],[126.9721732,37.4475905],[126.9728599,37.4479993],[126.9734607,37.447863],[126.9741474,37.4475223],[126.9744907,37.4476586],[126.9744907,37.448306],[126.9749627,37.4489533],[126.975349,37.4495666],[126.9759927,37.4500095],[126.9761644,37.4506568],[126.9769798,37.4508612],[126.9777093,37.4507931],[126.9777952,37.4511678],[126.9786105,37.4514745],[126.978868,37.4521218],[126.9795976,37.452224],[126.979898,37.4525647],[126.9804559,37.4528372],[126.9809709,37.4531438],[126.9811426,37.4535867],[126.9816575,37.4541318],[126.9822262,37.4548302],[126.9824193,37.4549665],[126.9825266,37.4552986],[126.9823335,37.4559203],[126.9821725,37.4563717],[126.982332,37.4566091],[126.9826017,37.4566187],[126.9829879,37.4566187],[126.9840179,37.4567891],[126.9846616,37.456772],[126.9851269,37.4569626],[126.9862709,37.4571127],[126.9867395,37.4572606],[126.9871614,37.4573937],[126.987621,37.4575687],[126.9882129,37.457794],[126.988543,37.4579461],[126.9892106,37.4582539],[126.9894681,37.4587649],[126.9897685,37.4594121],[126.9902835,37.4599913],[126.991056,37.4607407],[126.992086,37.4605022],[126.992601,37.4607066],[126.9932018,37.4614901],[126.9938884,37.4616945],[126.9947038,37.4616604],[126.9965492,37.4622055],[126.9971071,37.4630911],[126.99715,37.4640449],[126.9965062,37.4648965],[126.9963775,37.4659184],[126.9965921,37.4668721],[126.9971071,37.4673831],[126.9977508,37.4676896],[126.998137,37.4675534],[126.9987378,37.4674171],[126.9994245,37.4672809],[127.0002828,37.4670765],[127.0010553,37.467349],[127.0015273,37.4670084],[127.0025573,37.4670084],[127.0031152,37.4673149],[127.0036302,37.4667018],[127.0041452,37.4660206],[127.0043598,37.4653393],[127.0043168,37.4644537],[127.0046602,37.4639768],[127.0051322,37.4628867],[127.0050893,37.4620351],[127.0055614,37.4611495],[127.0060764,37.4602638],[127.0068059,37.4597528],[127.0069776,37.4592759],[127.0077072,37.4589012],[127.0086513,37.4583561],[127.0089088,37.457777],[127.0093809,37.457266],[127.0099962,37.456824],[127.010722,37.45598],[127.010965,37.4554008],[127.0131322,37.4554255],[127.013505,37.4552923],[127.0141129,37.4549492],[127.0145576,37.4548221],[127.0151452,37.4548034],[127.0156235,37.4549315],[127.0162686,37.4551981],[127.0167892,37.4557296],[127.0170121,37.4559297],[127.0177172,37.4561854],[127.0185388,37.4561179],[127.0193663,37.4558207],[127.0197466,37.4558403],[127.0203085,37.4561039],[127.02068,37.4563164],[127.0214852,37.456231],[127.0222011,37.4565365],[127.0225246,37.4568074],[127.0229071,37.4573375],[127.0235277,37.4573814],[127.0240588,37.4574516],[127.0252787,37.4574521],[127.0258529,37.4576831],[127.0262992,37.4579937],[127.0264634,37.4585356],[127.0264548,37.4594411],[127.0266219,37.4596649],[127.0274888,37.4598156],[127.0279161,37.4598294],[127.0281427,37.4598367],[127.0283788,37.4599001],[127.028489,37.4601253],[127.0281457,37.4606489],[127.0280415,37.4612545],[127.0283022,37.461881],[127.0297184,37.4638737],[127.0297801,37.4643613],[127.0295902,37.4653453],[127.0300069,37.4652903],[127.0302068,37.4653281],[127.0303385,37.4654476],[127.0311783,37.465754],[127.0316207,37.4656641],[127.0321516,37.4653411],[127.0337525,37.4646913],[127.0345929,37.4641358],[127.0347182,37.4641072],[127.0346726,37.463807],[127.0345786,37.4634483],[127.0339441,37.461989],[127.0338732,37.4615727],[127.0338142,37.4613279],[127.0339611,37.4607855],[127.0339993,37.4605976],[127.0340288,37.460357],[127.0340449,37.4601952],[127.034351,37.4600502],[127.0347753,37.4601337],[127.0349904,37.4596904],[127.0351135,37.4587749],[127.0349979,37.4587508],[127.0349641,37.4584474],[127.0350829,37.4579643],[127.0358553,37.4576577],[127.0365463,37.4568231],[127.0372329,37.4559714],[127.0373552,37.4551896],[127.0371578,37.4545866],[127.0358038,37.4539666],[127.0356429,37.4531932],[127.0366321,37.4516448],[127.0368038,37.4505546],[127.0373617,37.4498732],[127.0376191,37.4490214],[127.0371471,37.448306],[127.0370183,37.4476586],[127.0369754,37.4471135],[127.0371042,37.4460232],[127.0378337,37.4455803],[127.0379196,37.4446944],[127.0377908,37.4436722],[127.03719,37.4427182],[127.0365463,37.4419004],[127.0355163,37.4410486],[127.0352588,37.4405375],[127.035688,37.4396856],[127.0359531,37.4390526],[127.0368896,37.4387315],[127.0377908,37.4384759],[127.0387135,37.4384759],[127.0391641,37.4382885],[127.0398078,37.4383737],[127.0407734,37.4383737],[127.0413313,37.4379989],[127.0420823,37.4370959],[127.0425759,37.4366018],[127.0434342,37.4360907],[127.043799,37.4357669],[127.0438537,37.4354619],[127.0441423,37.4351536],[127.0443354,37.4346424],[127.045022,37.434012],[127.0454727,37.4338586],[127.0462451,37.4335179],[127.0465455,37.4325978],[127.0470605,37.4322059],[127.0472751,37.4312687],[127.0475326,37.4305872],[127.0482622,37.4304508],[127.0491205,37.4303486],[127.0506225,37.4295648],[127.0516096,37.4287128],[127.0525108,37.4285424],[127.0543561,37.4292581],[127.0559011,37.4294625],[127.0579181,37.4299397],[127.0592914,37.4296329],[127.0607934,37.4302123],[127.0618435,37.4300138],[127.0625959,37.4298715],[127.0644133,37.4294319],[127.0658789,37.4291337],[127.067102,37.4302634],[127.0679388,37.4304338],[127.0688186,37.4305701],[127.0694623,37.4303997],[127.0706597,37.4301774],[127.0710674,37.4307226],[127.0709172,37.4312858],[127.0711747,37.4318992],[127.0705309,37.4326489],[127.0710459,37.4332623],[127.0714751,37.4343528],[127.0709601,37.4349661],[127.0713506,37.4359714],[127.0728526,37.4365507],[127.0740114,37.4371981],[127.0740972,37.4381182],[127.0738397,37.4391745],[127.0719514,37.4399241],[127.0718656,37.4408441],[127.0716081,37.4419345],[127.0725093,37.4424115],[127.0733247,37.4421389],[127.0749555,37.4424797],[127.0755992,37.4420367],[127.0758191,37.4420519],[127.0765863,37.4421049],[127.0770583,37.4419345],[127.0785175,37.44173],[127.0790325,37.4414915],[127.0798478,37.4414234],[127.0811353,37.440776],[127.0823369,37.4411849],[127.0825086,37.4415938],[127.0829807,37.4423774],[127.0842252,37.4439789],[127.0847402,37.4439789],[127.0852123,37.4442855],[127.0858989,37.444524],[127.086886,37.4443877],[127.0876155,37.4449329],[127.0884738,37.4451714],[127.0883022,37.4461254],[127.0886455,37.4480675],[127.0881734,37.4489874],[127.0888172,37.4494303],[127.0887742,37.4500776],[127.0895038,37.4503842],[127.089418,37.4508271],[127.0902334,37.4513722],[127.0907054,37.4528031],[127.0917354,37.4535526],[127.0928083,37.4538593],[127.0930658,37.4546769],[127.0929799,37.4554604],[127.0945678,37.4565847],[127.0964539,37.4564808],[127.0983014,37.4565506],[127.1003806,37.4574965],[127.1004901,37.4576066],[127.1016918,37.4584242],[127.101446,37.4587815],[127.1016784,37.459067],[127.1018468,37.4593574],[127.1022856,37.4596338],[127.1026011,37.4598712],[127.1038133,37.459929],[127.1039579,37.4600779],[127.1039827,37.4604514],[127.1041353,37.4607038],[127.1043001,37.4609652],[127.1045334,37.4612512],[127.10452,37.4614235],[127.1042526,37.4620384],[127.1039813,37.462706],[127.1049423,37.4627453],[127.10567,37.4626727],[127.1065231,37.4625129],[127.1076738,37.4622997],[127.1079384,37.4622079],[127.1083511,37.462072],[127.1101881,37.4618378],[127.1125046,37.4614305],[127.1134256,37.4610352],[127.1138353,37.4610451],[127.1142138,37.4612135],[127.1144066,37.46159],[127.1147554,37.4619942],[127.1156198,37.4626901],[127.1167824,37.4629982],[127.1174573,37.4632354],[127.1193416,37.4638349],[127.120089,37.4639368],[127.1203073,37.4641103],[127.1207201,37.4644483],[127.122495,37.4664183],[127.1228128,37.4670123],[127.1245442,37.4671787],[127.1252593,37.4673056],[127.1252593,37.467808],[127.1251021,37.4684475],[127.1246799,37.4696984],[127.1250339,37.4696132],[127.1256133,37.469213],[127.1261857,37.468737],[127.1270655,37.4684742],[127.1282612,37.4681832],[127.1285997,37.4680643],[127.1293255,37.4677416],[127.1304338,37.467566],[127.1311918,37.4676888],[127.1319721,37.4679947],[127.1330924,37.4682834],[127.1327753,37.4689093],[127.1323281,37.4694192],[127.1319947,37.4697676],[127.1323809,37.4701839],[127.1325354,37.4703936],[127.1327509,37.4708518],[127.1328403,37.4712261],[127.1327763,37.4716942],[127.1327216,37.4719815],[127.1325942,37.4722619],[127.1325344,37.4724501],[127.1326609,37.4747766],[127.1346331,37.4744333],[127.1353849,37.4743746],[127.1374495,37.4742523],[127.1390826,37.4742028],[127.1408184,37.4741502],[127.1434778,37.4740601],[127.1469758,37.473881],[127.1469943,37.4745325],[127.1470103,37.4746904],[127.1470438,37.4751442],[127.1470959,37.4756556],[127.1471574,37.4765223],[127.1471802,37.4768976],[127.1472093,37.477255],[127.1472368,37.4778417],[127.147261,37.4782127],[127.1472838,37.4786105],[127.1473427,37.4797109],[127.1473909,37.4804865],[127.1474594,37.4815904],[127.1474643,37.4816544],[127.147471,37.4817184],[127.1474784,37.4817741],[127.1474795,37.4817822],[127.1474871,37.481829],[127.1474898,37.4818459],[127.1475018,37.4819094],[127.1475041,37.48192],[127.147513,37.4819627],[127.1475339,37.4820477],[127.1475581,37.4821321],[127.1475855,37.4822159],[127.1476159,37.482299],[127.1476496,37.4823814],[127.1476863,37.4824629],[127.1477262,37.4825435],[127.1477691,37.482623],[127.1478149,37.4827015],[127.1478637,37.4827789],[127.1478895,37.482817],[127.1479561,37.4829151],[127.1481059,37.4831359],[127.1481908,37.4832612],[127.1482228,37.4833606],[127.1482255,37.4833692],[127.1483963,37.4836209],[127.148567,37.4838726],[127.1486814,37.4840498],[127.1491296,37.4839418],[127.1492701,37.4841417],[127.1494127,37.4843518],[127.1494663,37.4844278],[127.149922,37.4849067],[127.1501225,37.485042],[127.1503694,37.4852087],[127.1504085,37.485235],[127.1515434,37.4858567],[127.1516744,37.4858956],[127.1520562,37.4861048],[127.1524022,37.4862944],[127.1529635,37.4866019],[127.1531627,37.4866891],[127.1535872,37.4869216],[127.1537414,37.4870608],[127.1553422,37.4879376],[127.1554732,37.4879766],[127.1555574,37.4880227],[127.1558551,37.4881857],[127.1562012,37.4883753],[127.1563216,37.4884413],[127.1564127,37.4884912],[127.1566112,37.488578],[127.1568819,37.4887263],[127.1569155,37.4887447],[127.1570349,37.4888101],[127.1572102,37.4889259],[127.1572325,37.4889401],[127.1574717,37.4890712],[127.1578179,37.4892608],[127.1583504,37.4895524],[127.1583845,37.4895711],[127.1584233,37.4896076],[127.1584669,37.4896379],[127.1584855,37.4896494],[127.1585233,37.489672],[127.1584808,37.4897199],[127.1584634,37.4897432],[127.1584482,37.4897751],[127.158432,37.4898062],[127.1584278,37.4898146],[127.1584089,37.489812],[127.1584058,37.4898368],[127.1583819,37.4898947],[127.1583218,37.4898945],[127.158291,37.4898944],[127.1582907,37.4898944],[127.1581657,37.4898949],[127.1581386,37.4898948],[127.1580749,37.4898944],[127.157918,37.4898942],[127.1578817,37.4898959],[127.1575904,37.4899093],[127.1574375,37.4899403],[127.1574773,37.4900139],[127.1575359,37.4900752],[127.1576221,37.4901397],[127.1577046,37.4902026],[127.1578354,37.4902892],[127.1578988,37.4903186],[127.1579758,37.490363],[127.1580492,37.4904229],[127.1581219,37.4904774],[127.1581574,37.4905364],[127.1581797,37.4906078],[127.1581958,37.4906932],[127.1582236,37.4908076],[127.1582647,37.4909811],[127.1582995,37.4911167],[127.1583336,37.4912794],[127.1583709,37.4914312],[127.1584158,37.4916384],[127.1584769,37.4919484],[127.1584976,37.4920406],[127.1585213,37.4921038],[127.1585712,37.4921969],[127.1586648,37.4924023],[127.158741,37.4925452],[127.1588391,37.492705],[127.1589036,37.4927891],[127.1589923,37.4929024],[127.1590506,37.4929735],[127.1591463,37.4930978],[127.159316,37.4932793],[127.1594771,37.4934363],[127.1596254,37.4935795],[127.1597137,37.4936865],[127.1597856,37.4937841],[127.1598789,37.4939306],[127.1599676,37.4940931],[127.1600562,37.4943563],[127.1600744,37.4944928],[127.160087,37.4946743],[127.1600611,37.4949628],[127.1600295,37.4952253],[127.1600187,37.4952752],[127.1600092,37.4953549],[127.1599886,37.4954764],[127.159968,37.4956365],[127.1599521,37.4957226],[127.1599449,37.4957783],[127.1599077,37.4960977],[127.1598873,37.4963119],[127.1598655,37.4965188],[127.159869,37.4966696],[127.1598924,37.4968048],[127.1599205,37.4969109],[127.1599601,37.4970013],[127.1600219,37.4971607],[127.1600868,37.4973131],[127.1601374,37.4974425],[127.1601778,37.4975437],[127.1602411,37.497686],[127.1603094,37.4978005],[127.1603748,37.4979081],[127.160433,37.4980039],[127.16053,37.4981819],[127.1605983,37.4983273],[127.160695,37.4985334],[127.1607946,37.4987151],[127.1608615,37.4988434],[127.1609431,37.4990416],[127.1609659,37.4990983],[127.1609863,37.4991749],[127.1610032,37.4992348],[127.1611217,37.4992619],[127.1612295,37.4993217],[127.1612948,37.499405],[127.1613552,37.4995369],[127.1613883,37.4996309],[127.1614196,37.499715],[127.161446,37.4997831],[127.1614624,37.4998411],[127.1614651,37.4999189],[127.16144,37.4999953],[127.161403,37.5000844],[127.161362,37.5001721],[127.1613083,37.5002689],[127.1612606,37.5003446],[127.1611756,37.5004431],[127.160966,37.5006055],[127.1607319,37.5008281],[127.1604636,37.5011252],[127.1593765,37.501383],[127.1591026,37.5018113],[127.1590266,37.5019301],[127.1589994,37.5019943],[127.1588362,37.5023794],[127.1576598,37.503169],[127.1565033,37.5019058],[127.1557029,37.5021533],[127.1540404,37.5026813],[127.1533009,37.5027276],[127.1528571,37.5030898],[127.1526121,37.5032698],[127.1519376,37.5034086],[127.1517561,37.5033816],[127.1513559,37.5034411],[127.1508834,37.503614],[127.1508038,37.5036711],[127.1505406,37.5041833],[127.1504806,37.5044268],[127.1503296,37.5046014],[127.1502631,37.5046783],[127.1500419,37.5045808],[127.1493802,37.5041985],[127.1492337,37.5040989],[127.1490774,37.5039927],[127.1490305,37.5039608],[127.1489082,37.5038893],[127.1487048,37.5037732],[127.1485433,37.5036548],[127.1484957,37.5036406],[127.1482552,37.5035714],[127.1480349,37.5035056],[127.147894,37.5033951],[127.1477628,37.503268],[127.1477306,37.5032445],[127.1477163,37.5032338],[127.1476973,37.5032399],[127.1475343,37.5032868],[127.1472596,37.5033658],[127.1472428,37.5033606],[127.1470818,37.5033113],[127.1468751,37.5032631],[127.1464461,37.5032296],[127.1462421,37.5032771],[127.1460518,37.5033614],[127.1459282,37.5033562],[127.1456801,37.5034825],[127.1454767,37.5036588],[127.1452077,37.5038345],[127.1451852,37.5038653],[127.1451012,37.5039715],[127.1450294,37.5040645],[127.145005,37.504086],[127.1449367,37.504136],[127.1448094,37.5041916],[127.1446872,37.5042274],[127.1446675,37.5042348],[127.1446305,37.5042484],[127.1445106,37.5042924],[127.1443912,37.504417],[127.1442465,37.5045656],[127.1442394,37.5045648],[127.1440686,37.5045459],[127.1438301,37.5045201],[127.1437387,37.5045101],[127.143694,37.5045052],[127.1435671,37.5044914],[127.1434903,37.5045235],[127.1433691,37.504574],[127.1431328,37.5046726],[127.1429873,37.5047319],[127.1422858,37.5049958],[127.1422501,37.5050729],[127.142185,37.505173],[127.1420684,37.5052085],[127.1417957,37.5052557],[127.1416909,37.5052661],[127.1415051,37.5053145],[127.1413726,37.505395],[127.1413017,37.5054028],[127.1412948,37.5055131],[127.1411555,37.5055656],[127.1411018,37.505874],[127.1408493,37.5058886],[127.1407995,37.5059309],[127.1408056,37.5059843],[127.1409876,37.5061584],[127.1411433,37.5062924],[127.1412668,37.5064301],[127.1412851,37.5064525],[127.1413046,37.5064765],[127.1414198,37.5066183],[127.1415158,37.506711],[127.1414848,37.5067782],[127.1414506,37.5068238],[127.1413565,37.5069487],[127.1412648,37.507058],[127.1412529,37.5070722],[127.1411379,37.5071573],[127.1409353,37.507374],[127.1409003,37.5074134],[127.1407707,37.5075253],[127.1406902,37.5075773],[127.1405448,37.5076302],[127.1405145,37.50763],[127.1403479,37.5077359],[127.1403162,37.5078219],[127.1403594,37.5079446],[127.1403879,37.5080162],[127.1403875,37.5080933],[127.1403294,37.5082754],[127.140208,37.5083685],[127.1401166,37.5084397],[127.1400141,37.5085154],[127.139952,37.5085171],[127.1399904,37.5086678],[127.1400132,37.5087253],[127.1400361,37.5088114],[127.1400889,37.5089824],[127.1401073,37.5090054],[127.140125,37.5090368],[127.1401263,37.5090668],[127.1401254,37.5090982],[127.1401464,37.5091009],[127.140163,37.5091596],[127.1401824,37.5092334],[127.1401815,37.5092991],[127.1402144,37.5093917],[127.1402391,37.5095049],[127.1402506,37.5096236],[127.1402498,37.509673],[127.1402468,37.5098531],[127.1402845,37.5099142],[127.1403644,37.5100433],[127.1403717,37.5100945],[127.140362,37.5101471],[127.1403511,37.5102058],[127.1403491,37.5102168],[127.1404544,37.5102244],[127.1405764,37.5102614],[127.1406674,37.5103198],[127.1407322,37.5103495],[127.1409476,37.5103936],[127.1411836,37.5107613],[127.141212,37.5107613],[127.1412239,37.5107848],[127.1412387,37.5108357],[127.1412645,37.5109616],[127.1412834,37.5109979],[127.141213,37.5110263],[127.1410942,37.5110825],[127.1411004,37.5111915],[127.1411116,37.5112709],[127.1411431,37.5113805],[127.1411999,37.5115969],[127.1412174,37.511683],[127.1412328,37.5118255],[127.1412686,37.5121207],[127.1413113,37.5123276],[127.1413342,37.5123641],[127.1414116,37.512421],[127.1415237,37.5124515],[127.1416868,37.512454],[127.1419433,37.5124456],[127.1420807,37.5127818],[127.1428199,37.5126787],[127.1433552,37.5126145],[127.1435456,37.5125896],[127.14355,37.5126659],[127.1434891,37.5129206],[127.1434509,37.5130801],[127.1434384,37.513158],[127.1434167,37.5133174],[127.1434163,37.5134114],[127.1434327,37.5135231],[127.143438,37.5135809],[127.1434388,37.5136591],[127.1434353,37.5137375],[127.1434534,37.5138707],[127.1433606,37.5138983],[127.1432,37.5139668],[127.1430587,37.5140304],[127.1429055,37.5141371],[127.1426676,37.514201],[127.142748,37.5143827],[127.1423296,37.5145437],[127.1422193,37.5146558],[127.141669,37.5148934],[127.1411897,37.5150983],[127.1409729,37.5152766],[127.1407259,37.5154605],[127.1407715,37.5155739],[127.1414098,37.5155737],[127.1415672,37.5156211],[127.1417807,37.5156306],[127.1420501,37.5156396],[127.1421745,37.5156264],[127.1423913,37.5155863],[127.1425116,37.5155782],[127.1426825,37.515584],[127.1428869,37.5155893],[127.1430411,37.5155843],[127.1432375,37.5155772],[127.1439279,37.5156677],[127.1441069,37.5156308],[127.1443136,37.5156222],[127.1445201,37.5156095],[127.1448857,37.5155064],[127.1453094,37.5154547],[127.1456077,37.5154388],[127.1455802,37.5156373],[127.1455402,37.5158106],[127.1454589,37.5161177],[127.1454687,37.5164673],[127.1453995,37.5165693],[127.1453406,37.5166938],[127.1452864,37.5168726],[127.1450415,37.5169068],[127.1450714,37.5170818],[127.1450827,37.5171441],[127.1450977,37.5172674],[127.145062,37.5174068],[127.1450482,37.5175163],[127.1449465,37.5176314],[127.1448969,37.5178608],[127.1449691,37.5181162],[127.1449951,37.5183988],[127.1449452,37.5184807],[127.144854,37.5185762],[127.144872,37.5186995],[127.1449212,37.5187536],[127.1448894,37.5191735],[127.1448022,37.5194483],[127.1450134,37.5200386],[127.1457932,37.5219592],[127.1462025,37.5219943],[127.146491,37.5220978],[127.1466064,37.5221261],[127.146728,37.5221038],[127.1468356,37.5221165],[127.1473269,37.5220873],[127.1474275,37.522075],[127.1475222,37.5221101],[127.1475937,37.5221719],[127.1477853,37.5221984],[127.1479456,37.5223791],[127.1481039,37.5225992],[127.1484888,37.5230385],[127.1486034,37.5232478],[127.1486372,37.5235099],[127.1488194,37.5237155],[127.1490193,37.5240815],[127.1490361,37.5242761],[127.149079,37.5244744],[127.1492231,37.5247738],[127.1493893,37.5249193],[127.1495497,37.5250807],[127.1495957,37.5252937],[127.149547,37.5254583],[127.1494904,37.5256518],[127.149654,37.5259276],[127.1498933,37.5261601],[127.1503169,37.5263307],[127.1504184,37.5263754],[127.15068,37.5267104],[127.1508293,37.5270166],[127.1511358,37.5272294],[127.1513115,37.5274591],[127.1515452,37.5276365],[127.1523503,37.5282423],[127.1526355,37.5285336],[127.1528235,37.5288663],[127.1531676,37.5291332],[127.153208,37.5293084],[127.1532412,37.5294741],[127.1532283,37.529966],[127.1532964,37.5301447],[127.1536013,37.5304671],[127.1536458,37.5306267],[127.1535125,37.5308478],[127.1534862,37.5310777],[127.1534998,37.5312912],[127.1535521,37.5313978],[127.1536187,37.5314726],[127.1537849,37.531645],[127.1539563,37.5319428],[127.1540486,37.5323362],[127.1538537,37.5324976],[127.1537664,37.5329466],[127.1535421,37.5336747],[127.1535827,37.5337306],[127.1536603,37.5338622],[127.1537546,37.5339598],[127.153835,37.5339919],[127.1539072,37.5340592],[127.1539186,37.5342389],[127.1539591,37.5343355],[127.1539119,37.5344667],[127.1539325,37.5345178],[127.1540964,37.5345985],[127.1542788,37.5346959],[127.1543353,37.5347356],[127.1545258,37.5348693],[127.154865,37.5353586],[127.155011,37.5356697],[127.1550485,37.5357497],[127.1551916,37.5360573],[127.1552285,37.5361367],[127.1552614,37.5362161],[127.1556527,37.5366856],[127.1560045,37.5370875],[127.1561636,37.5372614],[127.1562649,37.5373816],[127.1564048,37.5374364],[127.1565745,37.5374988],[127.1566615,37.5375481],[127.1567038,37.5375781],[127.1568243,37.5376684],[127.1569346,37.5377988],[127.1570027,37.5379036],[127.1570181,37.5381518],[127.1570273,37.5382562],[127.1570502,37.5383161],[127.157165,37.5383881],[127.157273,37.5384294],[127.1573717,37.5385246],[127.1574075,37.538589],[127.1575379,37.5388325],[127.1575953,37.5390459],[127.157873,37.5392952],[127.1581136,37.5395638],[127.1583517,37.5397046],[127.1584537,37.5397979],[127.1585457,37.5399574],[127.1587261,37.5401442],[127.1588554,37.540299],[127.1590051,37.5404693],[127.1591687,37.5406563],[127.1592392,37.5407475],[127.1593885,37.5408296],[127.159674,37.5409785],[127.1598914,37.541091],[127.1600652,37.5411403],[127.1601221,37.5411714],[127.160144,37.5412122],[127.1601415,37.5412632],[127.1600384,37.5414078],[127.1603166,37.5415273],[127.1605932,37.5416494],[127.1608031,37.5421397],[127.1609135,37.5423795],[127.1610283,37.5425381],[127.1612493,37.5428405],[127.1614383,37.5430024],[127.1615539,37.5431637],[127.1616321,37.5433042],[127.1617468,37.543429],[127.1619057,37.5435668],[127.1621688,37.5437528],[127.1622841,37.5438258],[127.1623404,37.5438823],[127.1625078,37.5441149],[127.1626099,37.5442637],[127.1627377,37.5444722],[127.162817,37.5445791],[127.1628756,37.5446559],[127.1629473,37.5447528],[127.1631653,37.5449789],[127.1632091,37.5449987],[127.1632629,37.5450142],[127.1633173,37.545023],[127.1633936,37.5450298],[127.1634738,37.5450306],[127.1635704,37.5450119],[127.1636535,37.5449767],[127.1637587,37.5449358],[127.1639761,37.544874],[127.1640872,37.544863],[127.1642263,37.5448166],[127.1643825,37.5448556],[127.1645205,37.5448372],[127.1646223,37.5447649],[127.1647767,37.5447239],[127.1649431,37.5447007],[127.1651725,37.544645],[127.1652432,37.5445337],[127.1653165,37.5444652],[127.1654156,37.5444298],[127.1656856,37.5444084],[127.1658457,37.5443928],[127.16599,37.5443845],[127.1661014,37.5443762],[127.166324,37.544329],[127.1664039,37.5443571],[127.1664593,37.5443391],[127.1665633,37.5441803],[127.1673841,37.544491],[127.1680212,37.544746],[127.1684814,37.5449394],[127.1691362,37.5452006],[127.1692446,37.545005],[127.1693323,37.5449314],[127.1694432,37.5448804],[127.1696078,37.5448334],[127.1697604,37.5447962],[127.1699895,37.5447909],[127.1701804,37.5447986],[127.1704454,37.5448457],[127.1707154,37.5449632],[127.1709974,37.5451236],[127.1712688,37.5452332],[127.1714403,37.5452997],[127.1715587,37.5453504],[127.1715986,37.5453673],[127.1717012,37.5454023],[127.1718117,37.5454461],[127.1719591,37.5454923],[127.172163,37.5455359],[127.1723278,37.5455454],[127.172496,37.5455497],[127.1730683,37.5455504],[127.1731794,37.5455505],[127.1733346,37.5455489],[127.1734768,37.5455511],[127.173632,37.5455589],[127.1737654,37.5455658],[127.1739414,37.5455984],[127.1740163,37.5456128],[127.174184,37.5456264],[127.1741974,37.545557],[127.1742211,37.5454866],[127.1743096,37.5453578],[127.1743789,37.5452951],[127.1744619,37.5452469],[127.1745619,37.5452669],[127.1749151,37.5452683],[127.175151,37.5452046],[127.1753659,37.5451785],[127.1754996,37.5451946],[127.1756554,37.5452407],[127.175845,37.5452203],[127.1759401,37.5451431],[127.1764854,37.5451553],[127.1764591,37.5454406],[127.1776377,37.5454666],[127.178064,37.5455004],[127.1787823,37.5456391],[127.1790913,37.5456507],[127.1795441,37.5455679],[127.1795949,37.5461597],[127.1794452,37.5463977],[127.1795718,37.5465818],[127.1811754,37.5465811],[127.1816307,37.5464139],[127.1819034,37.5461287],[127.1821695,37.5457115],[127.1824202,37.5455741],[127.1826769,37.5454809],[127.1830606,37.5453548],[127.1835485,37.545146],[127.183567,37.5451765],[127.1836101,37.5452649],[127.1837886,37.5455332],[127.183695,37.5456782],[127.1833795,37.5458954],[127.1830187,37.5461921],[127.1828693,37.5463598],[127.1828452,37.5464761],[127.1827993,37.5466751],[127.182794,37.546768],[127.1827702,37.5470587],[127.1827549,37.5472489],[127.1827472,37.5473541],[127.1827366,37.5474865],[127.1827345,37.5475153],[127.1827293,37.5475726],[127.1827222,37.5476484],[127.182726,37.5476922],[127.1827297,37.5477596],[127.1827356,37.5478214],[127.1827416,37.5478974],[127.182755,37.5481471],[127.1827635,37.5483209],[127.182777,37.5483727],[127.1827918,37.5484224],[127.1828048,37.5484765],[127.1828188,37.5485281],[127.1828304,37.5485683],[127.1828459,37.5486287],[127.1828655,37.5486945],[127.1828767,37.5487416],[127.1828914,37.54879],[127.1829029,37.5488331],[127.1829189,37.5488972],[127.1829321,37.5489595],[127.1829437,37.5490069],[127.1829167,37.549174],[127.1829108,37.5492195],[127.1828949,37.5493409],[127.1828153,37.5497722],[127.1828097,37.55019],[127.1828128,37.5504144],[127.1828131,37.5506612],[127.182814,37.5509913],[127.1831636,37.5509936],[127.1831252,37.5512743],[127.1829593,37.5518065],[127.1828848,37.5518846],[127.1824333,37.5521581],[127.1821097,37.5523625],[127.1817056,37.5526292],[127.1815456,37.5527408],[127.1814104,37.5528941],[127.181392,37.5530457],[127.1813876,37.5531409],[127.1815856,37.5531505],[127.1815904,37.5533404],[127.1816142,37.5537264],[127.1816305,37.5539774],[127.1816419,37.5543226],[127.1816611,37.5546358],[127.181669,37.5548869],[127.1816735,37.5550325],[127.1816915,37.5551481],[127.1817304,37.5553714],[127.1817868,37.5556983],[127.1818172,37.5559147],[127.1818332,37.5560802],[127.1818465,37.5562586],[127.1818474,37.5565048],[127.181839,37.5566686],[127.1818326,37.5568206],[127.1818138,37.5569664],[127.1817487,37.557287],[127.1816971,37.5575508],[127.1816793,37.5577506],[127.1816822,37.5579397],[127.1817038,37.5580933],[127.1817685,37.5583517],[127.1818204,37.558654],[127.1818294,37.5587012],[127.1818574,37.5588618],[127.1818779,37.5590396],[127.181879,37.5590946],[127.1818838,37.5591398],[127.1818944,37.5592544],[127.1819029,37.5593466],[127.1819154,37.5594669],[127.1819065,37.55975],[127.1819058,37.5599518],[127.1819001,37.560076],[127.1818794,37.5602692],[127.1818612,37.5604352],[127.1818361,37.5606271],[127.1818114,37.5607849],[127.1817512,37.5610158],[127.1817024,37.5612049],[127.181648,37.5614084],[127.1815927,37.5615814],[127.1815656,37.5616862],[127.1816583,37.5617028],[127.1816053,37.5618006],[127.1815664,37.5619356],[127.1815346,37.5620114],[127.1815347,37.5620803],[127.1815057,37.5621441],[127.1815083,37.5621567],[127.1815188,37.5622084],[127.1815141,37.5622667],[127.1814554,37.5623759],[127.1814124,37.562492],[127.1813932,37.562544],[127.1813602,37.5625945],[127.1813514,37.5626196],[127.181278,37.5628295],[127.1811856,37.5630163],[127.1810477,37.5632368],[127.1810149,37.5632893],[127.1809945,37.563322],[127.180846,37.5634684],[127.1807558,37.5636863],[127.1806249,37.5639189],[127.180523,37.5640396],[127.1804999,37.564067],[127.1804572,37.5641279],[127.1804144,37.5641955],[127.1803751,37.5642596],[127.1801942,37.564587],[127.1801023,37.5646941],[127.1799434,37.5648507],[127.1797844,37.5650545],[127.1797457,37.5651274],[127.1796651,37.5652786],[127.1795846,37.5654951],[127.1795487,37.5657088],[127.1795344,37.5657728],[127.1795124,37.565836],[127.1794829,37.5661635],[127.179474,37.5662301],[127.1794688,37.5662694],[127.1794655,37.5664378],[127.1794648,37.5665744],[127.1794639,37.5667589],[127.1794639,37.5667649],[127.1794423,37.5669025],[127.1794421,37.5669074],[127.1794296,37.5671717],[127.1794387,37.5676001],[127.1794965,37.5677298],[127.1794364,37.5678135],[127.1794274,37.5678398],[127.1794161,37.567873],[127.1793779,37.567985],[127.1793396,37.5681364],[127.1793312,37.568265],[127.1793296,37.5682707],[127.1792804,37.5684545],[127.1792609,37.5685538],[127.1792583,37.5685666],[127.179232,37.5687639],[127.1792159,37.5689174],[127.1791888,37.5689844],[127.1791653,37.5690424],[127.1791327,37.5691228],[127.1791062,37.5691662],[127.1790635,37.5692361],[127.1790337,37.5692798],[127.1789041,37.5694727],[127.1787863,37.5696073],[127.1786775,37.5697392],[127.1786539,37.5697678],[127.1786533,37.5697862],[127.1786526,37.5698085],[127.1785968,37.5699102],[127.1785148,37.5700597],[127.1785023,37.5700859],[127.1784392,37.5702588],[127.1784579,37.5702537],[127.1784402,37.5702586],[127.1783837,37.5704133],[127.1783806,37.570429],[127.1783625,37.570517],[127.1783498,37.5705171],[127.1783312,37.570639],[127.1783253,37.5706777],[127.178321,37.5707056],[127.1782855,37.5707691],[127.1782649,37.5708058],[127.178179,37.570927],[127.1780794,37.5710402],[127.1780572,37.5710653],[127.177984,37.5711485],[127.1779819,37.5711516],[127.1779411,37.5712783],[127.1778393,37.5714616],[127.1778249,37.5715621],[127.1777949,37.5717725],[127.1777943,37.5717931],[127.1778726,37.5718635],[127.1778763,37.5718686],[127.1778549,37.5719581],[127.177832,37.5720568],[127.1777897,37.572139],[127.1777368,37.5722131],[127.1776084,37.5723507],[127.177462,37.5724635],[127.1773971,37.5725384],[127.1773743,37.5725924],[127.1773569,37.5726335],[127.1772584,37.5727672],[127.1771865,37.57285],[127.1771343,37.5729372],[127.1771259,37.5729512],[127.1771093,37.5730036],[127.1770455,37.5731519],[127.1770426,37.5731572],[127.1769678,37.5732934],[127.1768508,37.5734019],[127.1768191,37.5734384],[127.1766403,37.5736041],[127.1765806,37.5737051],[127.1764946,37.5738273],[127.1764052,37.5739097],[127.1763137,37.5739855],[127.1761391,37.5740985],[127.176109,37.5741572],[127.176106,37.5742171],[127.1760586,37.5743269],[127.1759942,37.5744341],[127.1759603,37.5745033],[127.1757956,37.5747425],[127.1757858,37.5747567],[127.1757761,37.5747708],[127.175733,37.5748334],[127.1756878,37.5748992],[127.1756871,37.5749002],[127.175691,37.5749292],[127.1757274,37.5752271],[127.1757562,37.5754064],[127.1757663,37.5754554],[127.1757679,37.5754699],[127.1757707,37.5754947],[127.1757718,37.5755039],[127.1757763,37.5755437],[127.1757798,37.5755885],[127.1757751,37.5756564],[127.1757545,37.575792],[127.1757399,37.57588],[127.1757333,37.5759082],[127.1756538,37.5763139],[127.175633,37.5763739],[127.1756215,37.576416],[127.1756102,37.5764838],[127.1755931,37.5765646],[127.1755872,37.5766229],[127.1755582,37.576646],[127.1755402,37.5766837],[127.1755247,37.5768174],[127.1755135,37.5769086],[127.1755128,37.576966],[127.1754987,37.5770186],[127.1754521,37.5770592],[127.1754217,37.5771228],[127.175362,37.5771854],[127.1753278,37.5772336],[127.1753257,37.5772656],[127.175326,37.5773658],[127.1753329,37.5773889],[127.1753387,37.5774085],[127.1753432,37.5774234],[127.1753476,37.5774415],[127.175357,37.5774813],[127.1753593,37.577491],[127.1753611,37.5775281],[127.1753488,37.5775683],[127.1753353,37.5776127],[127.1753418,37.5776661],[127.1753523,37.5777536],[127.1753987,37.5780565],[127.1754717,37.5781415],[127.1755231,37.5782042],[127.1755306,37.5782485],[127.1754696,37.5783765],[127.1754832,37.5783935],[127.1755325,37.5784133],[127.1756114,37.5784344],[127.1757264,37.5784766],[127.1758365,37.5785237],[127.1759131,37.5785684],[127.1759871,37.5786063],[127.1760487,37.5786342],[127.1761127,37.5786682],[127.1761842,37.578708],[127.1762196,37.5787336],[127.1762362,37.5787631],[127.1762727,37.5788152],[127.1763081,37.5788646],[127.1763869,37.5789394],[127.1764071,37.5789912],[127.176402,37.5790532],[127.1763966,37.5790756],[127.1764068,37.5791297],[127.1764565,37.5791764],[127.1765492,37.5792224],[127.1766823,37.5792587],[127.1768072,37.5792862],[127.1768763,37.5793084],[127.1769264,37.5793472],[127.1769598,37.5794039],[127.1770398,37.57953],[127.1770563,37.5796284],[127.1770752,37.5796727],[127.1771299,37.5798686],[127.1771325,37.5800045],[127.1770958,37.5801508],[127.1770973,37.5802576],[127.1771022,37.5803383],[127.1770944,37.5803926],[127.1770703,37.5804796],[127.1770934,37.5805481],[127.1769227,37.5808377],[127.1756199,37.5809339],[127.173642,37.5806595],[127.1713893,37.580762],[127.1688841,37.5789692],[127.1682114,37.5789816],[127.1667472,37.5789757],[127.162555,37.5767301],[127.1620067,37.5763865],[127.1608454,37.5756526],[127.1568992,37.5729542],[127.1549811,37.5720436],[127.153137,37.5709343],[127.1515456,37.5699771],[127.1512434,37.5697953],[127.1511468,37.569738],[127.1489496,37.5684342],[127.1455855,37.5684311],[127.1399259,37.5684262],[127.1376656,37.5684242],[127.1370619,37.5683385],[127.1364042,37.5682486],[127.1357824,37.5681613],[127.1352803,37.5680952],[127.1347408,37.5680247],[127.134267,37.5679541],[127.1339452,37.5678534],[127.1337531,37.5677935],[127.1334578,37.5677013],[127.1329681,37.5675427],[127.1320183,37.5672433],[127.1314454,37.5670637],[127.1305395,37.5667704],[127.1292976,37.5663715],[127.1286102,37.5661604],[127.1280758,37.5659093],[127.1274028,37.5655866],[127.1264606,37.5651328],[127.1260591,37.5649402],[127.1257831,37.5648087],[127.1229553,37.5634898],[127.1200962,37.5611994],[127.1198148,37.5610138],[127.1197577,37.5609795],[127.1197061,37.5609474],[127.1195433,37.5608439],[127.1192778,37.560678],[127.119042,37.5605296],[127.1186872,37.560308],[127.1185194,37.5602028],[127.1184176,37.560138],[127.1183206,37.5600775],[127.1179334,37.5598334],[127.1177416,37.559713],[127.1174658,37.5595436],[127.1173668,37.5594793],[127.1173391,37.5594635],[127.117303,37.5594257],[127.1156453,37.5576997],[127.1156069,37.55759],[127.1151675,37.5564788],[127.1135351,37.5568489],[127.113328,37.5568959],[127.1140889,37.5586852],[127.1140489,37.5587492],[127.1139576,37.5588953],[127.1131233,37.5602298],[127.1113038,37.5601994],[127.1097804,37.5598085],[127.1091477,37.558841],[127.1087279,37.558199],[127.1082535,37.5574735],[127.1063266,37.556708],[127.1053825,37.5556534],[127.104477,37.5556364],[127.1031616,37.5571656],[127.1030972,37.5584261],[127.1027925,37.5591456],[127.1025703,37.5593315],[127.1015802,37.5601602],[127.1012369,37.5609087],[127.1014772,37.5621172],[127.1024814,37.5647698],[127.1025672,37.5661134],[127.1033397,37.5683415],[127.1034255,37.569464],[127.1039834,37.5711648],[127.1038375,37.5718969],[127.1031466,37.5723383],[127.1021209,37.5724922],[127.1015373,37.5729335],[127.1009579,37.5734267],[127.1011296,37.574516],[127.1010437,37.5754003],[127.1012583,37.5759785],[127.1019879,37.5769649],[127.1019879,37.5777812],[127.1028033,37.5786995],[127.1025887,37.5793117],[127.1041766,37.5812162],[127.1068802,37.5823726],[127.1076956,37.5830868],[127.1084252,37.5831888],[127.1088586,37.5837499],[127.1094551,37.5849232],[127.1098414,37.5862155],[127.1101214,37.5879401],[127.1102748,37.5888851],[127.1111331,37.5901093],[127.1123249,37.591835],[127.113,37.5928127],[127.113987,37.5935098],[127.1151629,37.593798],[127.1160641,37.5944101],[127.1161929,37.5956172],[127.1159611,37.5969442],[127.1160899,37.5975052],[127.1153818,37.5978113],[127.1148453,37.5980663],[127.1139398,37.5993235],[127.1141115,37.6001055],[127.1149311,37.6010414],[127.1156178,37.6019424],[127.117373,37.6031826],[127.118064,37.6034384],[127.1182099,37.6037606],[127.1180382,37.6043726],[127.1180382,37.6050866],[127.1179309,37.6055965],[127.1183386,37.6067185],[127.1183601,37.6075854],[127.1180425,37.6081303],[127.1168366,37.6086912],[127.116826,37.609242],[127.1173805,37.6111738],[127.1174205,37.6124988],[127.1168366,37.6144366],[127.1169353,37.6163325],[127.1170082,37.617734],[127.1162358,37.6185158],[127.1160276,37.6193826],[127.1152487,37.6196036],[127.1138325,37.6197396],[127.1120344,37.6203684],[127.1107748,37.6210737],[127.1087785,37.6204835],[127.1066687,37.6206124],[127.1057335,37.6208692],[127.1037946,37.621932],[127.103567,37.6230696],[127.1052178,37.6251668],[127.1053096,37.6270646],[127.1079531,37.628713],[127.1096268,37.6298346],[127.111232,37.6312043],[127.111691,37.6317549],[127.1119602,37.6325287],[127.1119859,37.6328693],[127.1118292,37.633311],[127.1118888,37.6336607],[127.1120787,37.6340496],[127.1123402,37.6342665],[127.1123453,37.6345531],[127.1124583,37.6349103],[127.1124872,37.6353245],[127.1122341,37.6357301],[127.1121802,37.6361187],[127.1122042,37.6363516],[127.1124281,37.6365711],[127.1123936,37.6367877],[127.1121598,37.6371594],[127.1114639,37.6381009],[127.110962,37.6382681],[127.1107897,37.6387512],[127.1106619,37.6387428],[127.1105656,37.6391298],[127.1106625,37.6392735],[127.1110209,37.6397147],[127.1111989,37.6397807],[127.1114118,37.6397586],[127.1116453,37.6397503],[127.1119023,37.6397974],[127.1120931,37.6398697],[127.1121766,37.6400114],[127.1123239,37.6401862],[127.1121192,37.6403048],[127.1119108,37.640497],[127.1117538,37.6406358],[127.1114287,37.6415857],[127.1110936,37.6425651],[127.1100676,37.6422974],[127.1089,37.6440528],[127.1070991,37.6449406],[127.1043096,37.6453144],[127.1022024,37.6454673],[127.1007433,37.6458071],[127.0991984,37.6451615],[127.0949498,37.6455353],[127.092804,37.6456372],[127.0920315,37.6464867],[127.0923319,37.6497148],[127.093452,37.6521782],[127.0937713,37.6527596],[127.0943103,37.6537411],[127.0928469,37.655355],[127.0914736,37.6578013],[127.0919028,37.6604513],[127.0932761,37.6619461],[127.094482,37.6634579],[127.09459,37.6639721],[127.094821,37.6650715],[127.094821,37.666906],[127.0955935,37.6681289],[127.0954613,37.6692954],[127.0954261,37.6697085],[127.0955077,37.6717297],[127.0948253,37.6751434],[127.0936237,37.6769776],[127.0917354,37.678608],[127.0921603,37.6799496],[127.0931677,37.6817469],[127.0936029,37.6825233],[127.0937052,37.6826668],[127.0960226,37.6848404],[127.0964518,37.6864706],[127.0963975,37.6880182],[127.096366,37.6889158],[127.0946536,37.6887969],[127.0931945,37.6897478],[127.0903621,37.6892724],[127.0888172,37.6900195],[127.0870962,37.6901384],[127.0855513,37.6906138],[127.0852123,37.6921929],[127.0840965,37.6940267],[127.0810666,37.6962169],[127.0795646,37.6960642],[127.0780025,37.6959114],[127.0765176,37.6956906],[127.074698,37.6950624],[127.0740509,37.6946707],[127.0731282,37.6938388],[127.0709816,37.6937041],[127.0701275,37.6939078],[127.0690942,37.6938557],[127.0686006,37.6939916],[127.0676985,37.6947908],[127.0664334,37.694433],[127.0653596,37.6947568],[127.0650816,37.694484],[127.0634692,37.6948722],[127.0629787,37.6945689],[127.062571,37.6937539],[127.0624843,37.6929562],[127.0619488,37.6926332],[127.0614801,37.6922948],[127.0609437,37.6916666],[127.0596528,37.6902221],[127.0584975,37.689646],[127.0556806,37.6893553],[127.0551161,37.6892971],[127.0540358,37.6886616],[127.0522623,37.6875675],[127.0517637,37.6872901],[127.0516223,37.687046],[127.0515088,37.6859363],[127.0511101,37.6863908],[127.050747,37.6868631],[127.0503219,37.6875284],[127.0501848,37.6878302],[127.0500861,37.6882366],[127.0499899,37.6885815],[127.0499709,37.6893175],[127.0500576,37.6910083],[127.0489703,37.6928126],[127.0488074,37.6936236],[127.0483621,37.6939156],[127.047894,37.6933294],[127.0473146,37.6930322],[127.047143,37.6930407],[127.0460761,37.6924498],[127.0449213,37.6924223],[127.0447685,37.6930327],[127.0447656,37.6930441],[127.0438707,37.6935416],[127.0430553,37.693635],[127.0434952,37.6941359],[127.0434952,37.6946113],[127.0430887,37.695239],[127.0421326,37.6950782],[127.0418688,37.6953273],[127.041049,37.695282],[127.0400834,37.6946877],[127.0399868,37.6941274],[127.039032,37.6939831],[127.0386062,37.6932881],[127.0375333,37.6932966],[127.0366965,37.6926598],[127.0358992,37.692404],[127.0355979,37.6925002],[127.0337439,37.6920605],[127.0324156,37.6918533],[127.0322547,37.6928551],[127.0310926,37.6930662],[127.0308921,37.6936192],[127.0299802,37.696166],[127.0296798,37.6984412],[127.0289073,37.6999013],[127.0273195,37.700886],[127.026032,37.700139],[127.0247016,37.6997315],[127.0216976,37.700071],[127.0198093,37.7011576],[127.0177798,37.7013911],[127.0172294,37.7013181],[127.0165867,37.7013572],[127.015457,37.7014794],[127.0157456,37.7005524],[127.0156208,37.7003846],[127.0152295,37.6998588],[127.0145686,37.698549],[127.0139678,37.6985829],[127.0131524,37.6981076],[127.0121225,37.6981415],[127.0114143,37.6975812],[127.0105131,37.6973265],[127.0099767,37.6966644],[127.0102986,37.696189],[127.0093973,37.6954929],[127.0089253,37.6946099],[127.0090969,37.6939478],[127.0082386,37.692114],[127.0085605,37.6914857],[127.0082601,37.6907386],[127.0081528,37.6889218],[127.0086463,37.6885652],[127.0089845,37.6873911],[127.0087914,37.685676],[127.0088343,37.6850817],[127.0083193,37.684844],[127.0071949,37.6847455],[127.00568,37.6851496],[127.004178,37.6851496],[127.0035986,37.6849289],[127.0031909,37.6841138],[127.002633,37.6840289],[127.002161,37.6837741],[127.0014314,37.6842836],[127.0010237,37.6843685],[126.9994144,37.6839609],[126.9978265,37.6849289],[126.997097,37.6846062],[126.995831,37.6854213],[126.9952087,37.6849459],[126.9950585,37.6842157],[126.9959168,37.6837232],[126.9963889,37.6828062],[126.9959597,37.6818892],[126.9947581,37.6811759],[126.9941192,37.6806577],[126.9939261,37.6802502],[126.9934111,37.6801483],[126.9931965,37.6798935],[126.9928317,37.6798086],[126.9920593,37.6796898],[126.9911902,37.6792822],[126.9923382,37.6788067],[126.9928103,37.6782972],[126.9930678,37.6775329],[126.9930249,37.6767008],[126.9931965,37.6759195],[126.9937158,37.6752181],[126.994087,37.6750636],[126.9942351,37.6746543],[126.9935398,37.6739155],[126.9940977,37.6727266],[126.9937973,37.6718095],[126.9941407,37.6708414],[126.9938617,37.6698732],[126.9942694,37.6696015],[126.9942694,37.6691429],[126.9939475,37.6687183],[126.9939905,37.6679539],[126.9939046,37.6677161],[126.9939261,37.6672575],[126.994205,37.6662894],[126.993454,37.6656439],[126.9931965,37.6651853],[126.9927245,37.6648965],[126.9908147,37.664387],[126.9901495,37.6639793],[126.9896989,37.6635886],[126.9888835,37.6637245],[126.988669,37.6636566],[126.9885402,37.663164],[126.9879394,37.6627903],[126.9871884,37.6626204],[126.9870811,37.6624675],[126.9870811,37.6620599],[126.986373,37.6608028],[126.9858151,37.6602083],[126.9854503,37.6596817],[126.9849782,37.6592231],[126.9840341,37.6587134],[126.9829827,37.6569808],[126.9828968,37.6564881],[126.9810514,37.6564541],[126.9803788,37.6561092],[126.9797104,37.6561942],[126.9796299,37.6558256],[126.9797093,37.6554153],[126.9805365,37.6532263],[126.9818669,37.6520711],[126.9819023,37.6514221],[126.9825321,37.650797],[126.983326,37.6501344],[126.9839912,37.6495483],[126.9839698,37.6489281],[126.9839161,37.6485968],[126.9837882,37.6483611],[126.9840725,37.6479406],[126.9844159,37.6477537],[126.9846733,37.6476645],[126.984727,37.6473545],[126.984668,37.6471209],[126.9849062,37.6462729],[126.9846135,37.6452413],[126.9843023,37.6447486],[126.9842165,37.6444852],[126.9838517,37.6441624],[126.9835406,37.6439585],[126.9833839,37.6436408],[126.9838088,37.6427437],[126.9838088,37.642251],[126.984313,37.6417157],[126.9849782,37.6415373],[126.9853752,37.6417242],[126.9855576,37.6411805],[126.9859438,37.6407048],[126.9858795,37.6401695],[126.9855039,37.6394134],[126.9855361,37.6390651],[126.9852357,37.6384789],[126.985225,37.638156],[126.985141,37.63798],[126.9851606,37.6376038],[126.9849997,37.6372469],[126.9849568,37.6368816],[126.9847744,37.6366522],[126.9845169,37.6365418],[126.9842487,37.6363208],[126.9839375,37.6363548],[126.983723,37.6364313],[126.9835728,37.6364058],[126.9822531,37.6355137],[126.9820493,37.6351229],[126.9815745,37.6347401],[126.9810198,37.6347533],[126.9807833,37.6347066],[126.9798177,37.6342053],[126.9794207,37.6340523],[126.9791847,37.6338229],[126.9783049,37.6339079],[126.9776504,37.633653],[126.9774895,37.6336615],[126.9771086,37.6332409],[126.9767653,37.6327821],[126.9766312,37.6324677],[126.9763844,37.6323615],[126.9761109,37.6320217],[126.9756334,37.6317795],[126.9754618,37.6314906],[126.9752605,37.6316357],[126.9749253,37.631822],[126.9745015,37.6318475],[126.9741885,37.6319314],[126.9736486,37.6319707],[126.9732406,37.6321238],[126.9729459,37.632353],[126.9724081,37.6320359],[126.9693374,37.631057],[126.9675135,37.6306322],[126.9650888,37.6307341],[126.9637585,37.6298249],[126.961441,37.6299184],[126.9584834,37.6293749],[126.9597869,37.6297446],[126.9603126,37.6302034],[126.960538,37.6305857],[126.9615068,37.6316473],[126.96204,37.6322001],[126.9624088,37.6324583],[126.96263,37.6327269],[126.9633811,37.6331517],[126.962512,37.6358706],[126.9619153,37.636614],[126.9616216,37.6371025],[126.9615894,37.6380031],[126.9609378,37.6387069],[126.9605487,37.6394388],[126.9604564,37.6398422],[126.9603877,37.6400676],[126.9601828,37.6402865],[126.960098,37.6404924],[126.9599851,37.6414252],[126.9597333,37.6415798],[126.9596367,37.6417752],[126.9594586,37.6419404],[126.9591646,37.6422934],[126.9592398,37.6425313],[126.9592612,37.643109],[126.959276,37.6434692],[126.9591035,37.6436181],[126.9591003,37.6438736],[126.9589608,37.6444343],[126.9590091,37.645322],[126.9591325,37.6457596],[126.9588857,37.6462072],[126.9590118,37.6465389],[126.9588611,37.6468137],[126.9589286,37.6470762],[126.958639,37.6472801],[126.9581355,37.6479091],[126.9579738,37.6482655],[126.9578558,37.6484524],[126.9577431,37.6487455],[126.9575848,37.6490088],[126.9575875,37.649098],[126.9576304,37.6492849],[126.9576948,37.6494378],[126.957727,37.6495907],[126.9577967,37.6497904],[126.9577913,37.6499602],[126.9577806,37.6501259],[126.9577324,37.6504826],[126.957625,37.6510009],[126.9574749,37.6517738],[126.9572098,37.6528536],[126.9567269,37.6529937],[126.9563086,37.6533972],[126.9554288,37.6537964],[126.9551177,37.6539366],[126.9547743,37.654132],[126.9544525,37.6543316],[126.9540899,37.6545345],[126.9536822,37.6548318],[126.953414,37.6550271],[126.952899,37.6549252],[126.9517908,37.6549633],[126.9514655,37.6548933],[126.951123,37.6550381],[126.9509464,37.6553499],[126.9506889,37.6556727],[126.9497233,37.6560974],[126.9493156,37.6566749],[126.9489293,37.6568958],[126.9478994,37.6573035],[126.9477706,37.6574161],[126.9476287,37.6575934],[126.9475957,37.6581285],[126.9475593,37.6583808],[126.9475165,37.658633],[126.9474133,37.6588581],[126.9472688,37.6589742],[126.9468867,37.6589703],[126.9464523,37.6588541],[126.945818,37.6586795],[126.9422963,37.6577719],[126.9409256,37.6571166],[126.9398957,37.6564541],[126.9381147,37.6540248],[126.9376855,37.6531244],[126.9370939,37.6522571],[126.9364624,37.6515275],[126.9359162,37.6509237],[126.9344039,37.6505243],[126.9334067,37.6504517],[126.9319134,37.6506271],[126.9300931,37.650525],[126.9288858,37.6502355],[126.9273225,37.6493683],[126.92651,37.6485389],[126.9251643,37.647177],[126.9239243,37.6464512],[126.9230437,37.6459724],[126.9222247,37.6457929],[126.9211818,37.6457302],[126.919627,37.6455381],[126.9179648,37.6453481],[126.9159457,37.6451942],[126.9149186,37.6451241],[126.9145253,37.6450331],[126.9140444,37.6450943],[126.9136187,37.6453876],[126.9122592,37.646478],[126.9113139,37.64732],[126.9107908,37.6477286],[126.9096776,37.6481488],[126.9086994,37.6484458],[126.907932,37.648724],[126.9072102,37.6488379],[126.9066268,37.6489481],[126.905835,37.6491575],[126.8983559,37.6513508],[126.8984887,37.6506994],[126.8986361,37.6503739],[126.8988914,37.6500591],[126.8992329,37.6497985],[126.9022888,37.647977],[126.9028378,37.6476903],[126.9035463,37.6474277],[126.9044431,37.6472257],[126.9054706,37.6471242],[126.9061602,37.6469989],[126.9069454,37.6467662],[126.9077715,37.646389],[126.9085749,37.6460079],[126.9091575,37.6457317],[126.9099479,37.6453424],[126.9108651,37.6449265],[126.9123034,37.6442648],[126.9119218,37.6431778],[126.9116682,37.6424556],[126.9114483,37.6418291],[126.9113406,37.6415223],[126.9111956,37.6411093],[126.911072,37.6407574],[126.9109956,37.6405396],[126.910931,37.6403557],[126.9107221,37.6397607],[126.9106234,37.6394793],[126.9105314,37.6392174],[126.9103594,37.6387275],[126.9101779,37.6382104],[126.9106714,37.6377006],[126.910607,37.6373098],[126.9111531,37.63593],[126.9106274,37.6355732],[126.9104783,37.6352197],[126.9099418,37.6353047],[126.9095116,37.6349784],[126.9090395,37.6347745],[126.9088035,37.6344007],[126.9082456,37.6339419],[126.9077735,37.633755],[126.9073884,37.6334355],[126.907162,37.6334236],[126.9067018,37.6333505],[126.9061428,37.6332112],[126.9067651,37.6327439],[126.9064442,37.632161],[126.9064442,37.6319061],[126.9066373,37.6317192],[126.9068734,37.6314983],[126.9070225,37.631053],[126.9070021,37.6307675],[126.9071727,37.6305262],[126.90728,37.6303393],[126.9078915,37.6303478],[126.9081168,37.6300419],[126.9083958,37.6300504],[126.9088035,37.6293027],[126.9087928,37.6291072],[126.9088893,37.6284529],[126.9091039,37.6281811],[126.9088035,37.6275013],[126.9086748,37.6270764],[126.9086533,37.6267195],[126.908826,37.626366],[126.9088689,37.6260431],[126.9085256,37.6257542],[126.9076019,37.6254279],[126.9072371,37.625139],[126.9071083,37.6249351],[126.9070011,37.6246292],[126.9066577,37.6243403],[126.9063359,37.6240683],[126.9065106,37.6239725],[126.9066148,37.6239154],[126.9067006,37.6236265],[126.9067446,37.623069],[126.9072596,37.6227291],[126.9072585,37.6223858],[126.9071952,37.6218793],[126.9064013,37.6214544],[126.9058434,37.6213864],[126.9055419,37.6211621],[126.9053284,37.6204517],[126.9048553,37.6202783],[126.9048672,37.6197024],[126.9048767,37.6192415],[126.9046203,37.619007],[126.9032674,37.6185957],[126.9029681,37.6182591],[126.9029681,37.6178682],[126.9029681,37.6174603],[126.9028393,37.6172054],[126.9025389,37.6167294],[126.9022171,37.6164235],[126.9023662,37.6161821],[126.9025164,37.6157572],[126.9020025,37.6153697],[126.9017235,37.6148768],[126.9018083,37.6144144],[126.9016796,37.6139895],[126.9014006,37.6138195],[126.9011217,37.6132416],[126.9010144,37.6130376],[126.9009082,37.6126841],[126.9010144,37.6124172],[126.9009232,37.6121451],[126.9006077,37.6116897],[126.9003278,37.6111933],[126.900715,37.6103469],[126.9005871,37.609285],[126.9008009,37.608426],[126.9014132,37.6062252],[126.9017439,37.6057368],[126.9015079,37.6053628],[126.9016474,37.6051418],[126.9017665,37.6047797],[126.9020239,37.6044057],[126.9020229,37.6038073],[126.901745,37.6034197],[126.9012719,37.6032973],[126.9002,37.6032327],[126.9002848,37.6029743],[126.900479,37.6027057],[126.9003063,37.6024643],[126.900243,37.6023147],[126.9001357,37.6020597],[126.9005208,37.6016143],[126.900479,37.6013117],[126.9007579,37.6009547],[126.9011217,37.6003393],[126.9012086,37.5999346],[126.9012086,37.5996626],[126.9014017,37.5994756],[126.9015723,37.5991662],[126.9014435,37.5989622],[126.9014446,37.5984726],[126.9013373,37.5983026],[126.9013802,37.5979625],[126.9011217,37.5973981],[126.9012944,37.5967724],[126.9012729,37.5965684],[126.9012944,37.5962284],[126.9017654,37.595936],[126.9018523,37.5955143],[126.9018512,37.5951709],[126.901466,37.5948513],[126.9010573,37.5947288],[126.9005005,37.5943752],[126.900243,37.5940182],[126.8998986,37.5937427],[126.8997698,37.5934537],[126.8992978,37.5932327],[126.8991905,37.5930116],[126.8989973,37.5928416],[126.8991272,37.5922329],[126.8996196,37.5916684],[126.8997065,37.5912638],[126.8995349,37.5908047],[126.8995349,37.5905497],[126.8997065,37.5902436],[126.89992,37.5899342],[126.8997269,37.5899342],[126.8992345,37.5897845],[126.8985693,37.5897505],[126.8980317,37.5895771],[126.8978386,37.5894241],[126.8976455,37.589339],[126.8975382,37.589067],[126.8972378,37.5887949],[126.8968945,37.5886419],[126.896681,37.5886793],[126.8963377,37.5888494],[126.8958441,37.5887813],[126.8954783,37.588897],[126.8950717,37.5890194],[126.8949633,37.588931],[126.8944923,37.5889174],[126.8941479,37.588999],[126.8938904,37.589203],[126.8932692,37.5892234],[126.8928605,37.588999],[126.892604,37.5887983],[126.8912522,37.5885093],[126.8903081,37.5889174],[126.8900066,37.588982],[126.8897287,37.5889344],[126.8892556,37.588982],[126.889041,37.588829],[126.888334,37.5888153],[126.8882256,37.5887269],[126.88742,37.5888795],[126.8871591,37.5886652],[126.886984,37.5886751],[126.8867954,37.588619],[126.8865219,37.5887584],[126.8864406,37.5891231],[126.8861882,37.5893935],[126.8859307,37.5898185],[126.8859493,37.5899279],[126.8858722,37.5902524],[126.8857924,37.5907642],[126.8856341,37.5910133],[126.8855586,37.5911735],[126.8859014,37.5918189],[126.8863169,37.5921989],[126.8865708,37.5925075],[126.88671,37.5928208],[126.8868387,37.5931156],[126.8869488,37.5932541],[126.8870619,37.593397],[126.8872627,37.5936448],[126.8875646,37.5940483],[126.8877932,37.5942509],[126.8873804,37.5943909],[126.8870675,37.5945344],[126.8868505,37.5945079],[126.8864363,37.5944447],[126.8862657,37.5943453],[126.8860415,37.5941915],[126.8858713,37.5941243],[126.8856202,37.5940392],[126.8853185,37.5939766],[126.8851192,37.5938805],[126.8849258,37.5937373],[126.8847766,37.5935425],[126.8845826,37.5931606],[126.8840184,37.5923735],[126.883594,37.5919478],[126.8827594,37.5914578],[126.8826939,37.5913038],[126.8822102,37.5909511],[126.8820313,37.5908337],[126.8819173,37.59076],[126.8817476,37.5906502],[126.8815581,37.5905178],[126.8812232,37.5902971],[126.8810487,37.5901614],[126.8808909,37.5900248],[126.8807509,37.5899128],[126.8806013,37.5897867],[126.8804007,37.589626],[126.8802478,37.589296],[126.8801647,37.5891401],[126.8801169,37.5890349],[126.880059,37.5889295],[126.8800057,37.5888335],[126.8799596,37.5887598],[126.879874,37.5886099],[126.879803,37.5884952],[126.8797553,37.5884141],[126.8797026,37.5883292],[126.8796567,37.5882475],[126.8796056,37.588156],[126.8795505,37.5880082],[126.8794399,37.587735],[126.8794004,37.5876429],[126.8793538,37.5875409],[126.8792162,37.5871329],[126.8790963,37.5867799],[126.8789405,37.5865801],[126.8787217,37.5864507],[126.8784651,37.5863691],[126.8779261,37.5862508],[126.8776774,37.5860762],[126.87738,37.5856367],[126.8772625,37.5854699],[126.8772471,37.5851194],[126.8771932,37.5849357],[126.8770868,37.584827],[126.876925,37.5847486],[126.8767456,37.5846373],[126.8765379,37.58444],[126.8765616,37.5842442],[126.8766235,37.5841642],[126.8766962,37.5841495],[126.8767787,37.5841457],[126.8769737,37.5842387],[126.8771648,37.584238],[126.8772937,37.5841732],[126.8773312,37.5840474],[126.8772508,37.5837743],[126.8771629,37.5835704],[126.877141,37.5834193],[126.8769465,37.5822246],[126.8768255,37.581845],[126.8764344,37.5806269],[126.8763353,37.5802951],[126.8763175,37.5802384],[126.8763002,37.5801812],[126.8761617,37.5797173],[126.8759904,37.5792686],[126.8758685,37.5790945],[126.8749768,37.5790326],[126.8740383,37.5788479],[126.8724155,37.5782697],[126.871496,37.5780642],[126.8706528,37.577876],[126.8700058,37.5778254],[126.8696224,37.5777948],[126.8690146,37.5776916],[126.8681592,37.5777439],[126.8680449,37.5777219],[126.8679974,37.5776623],[126.8679902,37.5775006],[126.8679327,37.5774387],[126.8678217,37.5774096],[126.8677115,37.5774353],[126.8675333,37.5775391],[126.8674605,37.5775497],[126.8673901,37.5775126],[126.8673556,37.5774444],[126.8669312,37.5771692],[126.8668583,37.5771926],[126.866848,37.5772774],[126.8668034,37.577333],[126.8667204,37.5773434],[126.8666134,37.5772782],[126.8665076,37.5772669],[126.866405,37.5772836],[126.8662892,37.5772477],[126.866045,37.5771149],[126.8658433,37.5771305],[126.8656617,37.5772704],[126.8652892,37.5774037],[126.8649549,37.577353],[126.864779,37.577264],[126.8646209,37.5772424],[126.864417,37.577309],[126.8642816,37.5773101],[126.8641002,37.577393],[126.8637912,37.5773845],[126.8636775,37.5775317],[126.8635111,37.5775377],[126.8631179,37.5773884],[126.8629585,37.5772851],[126.861901,37.5760491],[126.8610044,37.5750512],[126.8609283,37.5750024],[126.8607948,37.5750032],[126.8592642,37.5755212],[126.8590321,37.575075],[126.8583508,37.5747303],[126.8573403,37.5745322],[126.8557664,37.5742214],[126.8548342,37.5740372],[126.8541335,37.5738967],[126.8536285,37.5737988],[126.8536318,37.5717872],[126.8534814,37.571915],[126.8511038,37.5736775],[126.8493014,37.574868],[126.8475848,37.5761945],[126.8424084,37.5792636],[126.8417912,37.5796296],[126.8391304,37.580888],[126.8371885,37.5825715],[126.8356307,37.5835051],[126.8347423,37.5840083],[126.8329828,37.585095],[126.8319757,37.5857064],[126.8294209,37.5868209],[126.8278351,37.5874857],[126.8251615,37.589135],[126.8221183,37.5910935],[126.8193376,37.5928116],[126.8186938,37.5936969],[126.8175459,37.5953534],[126.8165141,37.5957319],[126.813941,37.5976316],[126.8113857,37.5989452],[126.808285,37.6011893],[126.8072443,37.6017758],[126.805871,37.6025578],[126.8039399,37.6040283],[126.8025933,37.6050356],[126.8018316,37.6043343],[126.8005835,37.6031524],[126.8003528,37.6029526],[126.7999505,37.6025488],[126.7999505,37.6024001],[126.7997574,37.60192],[126.799988,37.601716],[126.8001436,37.6015248],[126.80009,37.6014228],[126.799988,37.6013675],[126.7996769,37.6012768],[126.7990279,37.6011337],[126.7983412,37.6000118],[126.7979603,37.600237],[126.7974186,37.5988387],[126.7973273,37.5975423],[126.7969893,37.5976528],[126.7970698,37.5970493],[126.7973058,37.5963607],[126.797338,37.5950006],[126.7977511,37.5944311],[126.7984055,37.593683],[126.7991244,37.5931502],[126.7993818,37.5929334],[126.8001974,37.592361],[126.8000793,37.5920635],[126.7994678,37.5923525],[126.7988615,37.5923398],[126.798681,37.5912828],[126.7992472,37.5910567],[126.7999399,37.5902697],[126.800349,37.5902603],[126.8007454,37.5896584],[126.8010465,37.5892673],[126.8009323,37.5888329],[126.8006966,37.5888906],[126.8007922,37.5881401],[126.8006372,37.5877957],[126.8003261,37.5877192],[126.8000096,37.587953],[126.7987382,37.5881358],[126.7979818,37.5872501],[126.7975387,37.5865353],[126.7970698,37.5853217],[126.7969544,37.5853163],[126.7964851,37.5848711],[126.7963032,37.5849825],[126.7961339,37.5848275],[126.7969515,37.5841875],[126.7964547,37.5838627],[126.7961551,37.5836251],[126.7955294,37.5830494],[126.7955323,37.5833143],[126.7954734,37.5836931],[126.7953586,37.5851262],[126.7951332,37.5852707],[126.7950261,37.5851006],[126.7947846,37.5851474],[126.7948022,37.5839858],[126.7947551,37.5833456],[126.79457,37.582533],[126.794275,37.582567],[126.7944145,37.583515],[126.7939317,37.5841951],[126.7936152,37.5844459],[126.793315,37.5844459],[126.7935401,37.5836893],[126.7935562,37.5830048],[126.7937547,37.582924],[126.7937708,37.5821928],[126.7936261,37.5816239],[126.7933255,37.5809132],[126.7931193,37.5801437],[126.7927293,37.5801601],[126.7927462,37.5797441],[126.7929286,37.5792127],[126.792932,37.5785583],[126.7931327,37.5784648],[126.7930037,37.5781158],[126.7930511,37.5777599],[126.7930937,37.5768502],[126.7925382,37.5767999],[126.7926067,37.5773888],[126.792382,37.5783438],[126.7923385,37.579353],[126.7921239,37.5800545],[126.7919278,37.5802163],[126.7914748,37.581011],[126.7914104,37.5812746],[126.7912241,37.5813259],[126.7912012,37.5809175],[126.7909491,37.5806667],[126.7906702,37.5807177],[126.7906702,37.5806029],[126.79059,37.5805305],[126.790697,37.5794678],[126.7905342,37.5789817],[126.7907184,37.5789279],[126.7904827,37.5777199],[126.7898816,37.5772911],[126.789844,37.5776014],[126.7892048,37.5776341],[126.7883527,37.5767299],[126.7890662,37.5755479],[126.7885297,37.5757052],[126.7882186,37.5760114],[126.7878648,37.5760959],[126.7874862,37.5754986],[126.7861246,37.5750636],[126.784659,37.5745364],[126.7839649,37.5741741],[126.7821839,37.5734768],[126.7820841,37.5725211],[126.7817773,37.5717064],[126.7813432,37.5714722],[126.7825212,37.5704756],[126.7823238,37.5702486],[126.7811285,37.5702137],[126.7808104,37.5703694],[126.7804484,37.5704552],[126.7803164,37.5702494],[126.7807299,37.5698761],[126.7811054,37.5694424],[126.7812234,37.5694297],[126.7815706,37.5691388],[126.7814472,37.5689262],[126.7810625,37.5688557],[126.780349,37.5683072],[126.7802417,37.5681583],[126.7803544,37.5678224],[126.7801147,37.567506],[126.779716,37.5678947],[126.779088,37.5683131],[126.7788362,37.5681839],[126.778853,37.5672025],[126.7775978,37.5669728],[126.7771786,37.5666744],[126.7772484,37.5666319],[126.7768514,37.5660876],[126.7764927,37.5660586],[126.7763042,37.5670273],[126.7752904,37.5672697],[126.7754513,37.5676736],[126.7754251,37.5681931],[126.7746634,37.5676276],[126.7746466,37.5672399],[126.7749309,37.5668487],[126.7750597,37.5657814],[126.7753413,37.5656943],[126.7754298,37.5654625],[126.775291,37.5652933],[126.7756687,37.5653137],[126.7759209,37.5650203],[126.7759744,37.5646673],[126.7764616,37.5642969],[126.7770244,37.5636463],[126.776889,37.5636128],[126.7766476,37.5630685],[126.7766476,37.5626646],[126.7765295,37.562537],[126.7765244,37.5623026],[126.7773986,37.5622011],[126.7775273,37.561206],[126.7777851,37.5606951],[126.777876,37.5601344],[126.7777829,37.559826],[126.7776119,37.5600104],[126.7772057,37.5602598],[126.7771017,37.5606212],[126.7762015,37.5615167],[126.7760038,37.5617588],[126.7758053,37.5616695],[126.7756337,37.5618736],[126.7754781,37.5617843],[126.7754162,37.5613373],[126.7750007,37.5613166],[126.7749256,37.5612485],[126.7745823,37.5612911],[126.7748129,37.5610232],[126.774829,37.5607935],[126.7745447,37.5606404],[126.7747178,37.5603558],[126.7743677,37.560364],[126.7740726,37.5601046],[126.7741853,37.5599516],[126.7741136,37.5596202],[126.7735684,37.5599898],[126.7731191,37.559206],[126.7726886,37.5593434],[126.772474,37.5589777],[126.7725116,37.5588459],[126.7723507,37.5585993],[126.7721254,37.5585312],[126.7717749,37.558557],[126.773132,37.5574131],[126.7726886,37.5571661],[126.7723131,37.5568685],[126.7719915,37.5568977],[126.7711526,37.5570984],[126.7698133,37.5571576],[126.7689102,37.556992],[126.7686439,37.5567196],[126.7683327,37.5566388],[126.7676055,37.5566246],[126.7672759,37.556558],[126.7664125,37.5569746],[126.7661765,37.556796],[126.7668039,37.5563454],[126.766434,37.5561624],[126.7661315,37.5561202],[126.7654072,37.5557588],[126.7651036,37.555601],[126.7648032,37.555533],[126.7646208,37.5554224],[126.7644328,37.5553162],[126.7645233,37.5550908],[126.7650372,37.5549065],[126.7660636,37.5549165],[126.7663216,37.5546943],[126.7662189,37.5542443],[126.7663577,37.5539501],[126.7663602,37.5537683],[126.7664812,37.553776],[126.7667295,37.5540734],[126.7670311,37.5540829],[126.7672556,37.554192],[126.7674206,37.5542304],[126.7675672,37.5541789],[126.7676345,37.5540962],[126.767643,37.5539579],[126.7672832,37.5536811],[126.7672999,37.553616],[126.7673514,37.5535773],[126.7675685,37.5535672],[126.7676276,37.5535185],[126.7676229,37.5534302],[126.767477,37.5533173],[126.7673769,37.5531373],[126.7674883,37.5529813],[126.767558,37.5529095],[126.7677188,37.5528369],[126.7676322,37.5526593],[126.767673,37.5525653],[126.7674673,37.5519664],[126.7675649,37.5518921],[126.7680476,37.5518001],[126.7681103,37.5516695],[126.7682704,37.5516235],[126.7685738,37.5516043],[126.7687525,37.5515131],[126.7688575,37.5515168],[126.7688807,37.5515849],[126.7693387,37.5515785],[126.7693971,37.5515099],[126.7693518,37.5513917],[126.7697839,37.5510781],[126.7699041,37.5510826],[126.7700423,37.5511667],[126.7701664,37.5511819],[126.7702735,37.5510877],[126.7700457,37.5508802],[126.769887,37.5507002],[126.7698482,37.5504901],[126.7698867,37.5503391],[126.7699598,37.5502344],[126.7703102,37.5500181],[126.7703149,37.5498519],[126.7705377,37.5496273],[126.7706491,37.5495629],[126.7708579,37.5493237],[126.7710272,37.5490293],[126.7710835,37.5486989],[126.7713556,37.5486321],[126.7714966,37.5483714],[126.7716841,37.5483118],[126.7720974,37.5484306],[126.7722828,37.548516],[126.7725921,37.5487571],[126.7738642,37.5489013],[126.7749389,37.5489849],[126.7753146,37.5489647],[126.7756446,37.5488272],[126.7767946,37.548167],[126.7769733,37.5477211],[126.7773537,37.5472027],[126.7774624,37.5468877],[126.7775707,37.5467254],[126.7778556,37.5466694],[126.7783327,37.546735],[126.7787775,37.5467188],[126.7792325,37.5465631],[126.7805633,37.546387],[126.7818261,37.5460959],[126.7819971,37.5463292],[126.7821919,37.5463154],[126.7825732,37.5461592],[126.7834201,37.5460138],[126.783944,37.5460211],[126.7844874,37.5461277],[126.7847724,37.5461241],[126.7854501,37.5460174],[126.7859158,37.5460275],[126.7869485,37.5459945],[126.7870823,37.5460638],[126.7872811,37.5460855],[126.7876454,37.5458463],[126.7878436,37.5456215],[126.7880082,37.5453892],[126.7881907,37.5451802],[126.7884231,37.545011],[126.7894045,37.5443599],[126.790179,37.5439838],[126.7908703,37.5436592],[126.791438,37.5437201],[126.7917263,37.5436737],[126.7917342,37.5434153],[126.7916787,37.5431907],[126.7915136,37.5430679],[126.7915115,37.5427441],[126.7914905,37.5423481],[126.7916572,37.5422167],[126.7918287,37.5417866],[126.7931926,37.5415626],[126.7941722,37.5414632],[126.7950852,37.5413165],[126.7948365,37.54084],[126.7943284,37.5403751],[126.7943555,37.5401792],[126.7942214,37.5400857],[126.7940125,37.5400869],[126.7932224,37.5396146],[126.7939019,37.5394826],[126.7938673,37.5390138],[126.7941771,37.5385323],[126.7941785,37.53818],[126.7939952,37.5380451],[126.7938972,37.5372582],[126.7942394,37.536404],[126.7943743,37.5358468],[126.7944388,37.5357891],[126.7945004,37.535734],[126.7951215,37.5361379],[126.7961166,37.5366891],[126.7965711,37.5366783],[126.7967534,37.536908],[126.7969973,37.5369887],[126.7977665,37.5369863],[126.7981363,37.5372588],[126.7982152,37.537157],[126.7982888,37.5371426],[126.7982069,37.5376181],[126.7991139,37.5375361],[126.7992452,37.5377015],[126.7994423,37.5377251],[126.7991567,37.5388394],[126.7993981,37.5388649],[126.7993981,37.539001],[126.799162,37.5393073],[126.7987568,37.5393952],[126.7988415,37.540234],[126.7993659,37.5402005],[126.7993927,37.5405791],[126.8007123,37.540745],[126.8007874,37.5408428],[126.8007982,37.5412086],[126.800589,37.5413149],[126.8005514,37.5414638],[126.7996985,37.541366],[126.8016371,37.5425195],[126.802188,37.5427323],[126.803055,37.542954],[126.8041322,37.5431881],[126.8052122,37.5433031],[126.8072127,37.5435358],[126.8084296,37.5430368],[126.8089023,37.5427508],[126.8094067,37.5423442],[126.8100805,37.5419809],[126.8107623,37.5417746],[126.8107301,37.5416228],[126.8123215,37.5407605],[126.8127396,37.540681],[126.8142202,37.540613],[126.8167415,37.5405619],[126.8175784,37.540647],[126.8185869,37.5406895],[126.819531,37.5407236],[126.8202606,37.5407576],[126.8208399,37.5407406],[126.8220543,37.5406609],[126.8215906,37.5397119],[126.8217476,37.539323],[126.8218221,37.539181],[126.8218906,37.5390504],[126.8220544,37.5386373],[126.8223218,37.537924],[126.8223359,37.5374499],[126.8223412,37.5369923],[126.8223419,37.5369799],[126.822434,37.5365431],[126.8219329,37.5350501],[126.821868,37.534903],[126.8219219,37.5348276],[126.822623,37.5342011],[126.8227029,37.5337547],[126.8232813,37.5338068],[126.8235528,37.5337633],[126.8234747,37.5334472],[126.8234962,37.5329472],[126.8234307,37.5326166],[126.8236724,37.5322971],[126.8237157,37.5322383],[126.8237692,37.5322037],[126.8238666,37.5320611],[126.8239469,37.531887],[126.823961,37.5318113],[126.8240644,37.5317124],[126.8241339,37.531646],[126.8242182,37.5316129],[126.8245788,37.531217],[126.8247355,37.5306003],[126.8250597,37.5302373],[126.8253126,37.5299589],[126.8255584,37.5298469],[126.8262473,37.5298263],[126.8265445,37.5297969],[126.8268953,37.5297084],[126.8270698,37.5297087],[126.8275742,37.5293642],[126.827586,37.5293586],[126.8281366,37.5290697],[126.828214,37.5290293],[126.8278751,37.5283649],[126.8279392,37.5280032],[126.8279548,37.5279545],[126.8280206,37.5277955],[126.8280949,37.527616],[126.8283012,37.527025],[126.8283268,37.5269453],[126.8283446,37.5268879],[126.8284278,37.5267028],[126.8288374,37.5265159],[126.8288372,37.5265085],[126.8282586,37.5262999],[126.8281465,37.5261173],[126.8281489,37.5258326],[126.827959,37.5256882],[126.827309,37.5252759],[126.8267499,37.5251281],[126.8265069,37.5249323],[126.826479,37.5247628],[126.8263121,37.5245716],[126.8261265,37.5242957],[126.8260883,37.5241991],[126.8260141,37.5240557],[126.8259419,37.5239162],[126.8259143,37.5238688],[126.8258703,37.5237933],[126.8258208,37.5237082],[126.825724,37.5236022],[126.8254966,37.5233603],[126.8254504,37.5233557],[126.8251629,37.5230551],[126.8251373,37.5230055],[126.8251928,37.5228144],[126.8251958,37.5228082],[126.8252174,37.5227801],[126.8253897,37.5225667],[126.8254213,37.5225293],[126.8255813,37.5223327],[126.8256608,37.5222351],[126.8254804,37.5217525],[126.8255892,37.5217521],[126.8255419,37.5214514],[126.8256544,37.52103],[126.8256291,37.5206614],[126.8256319,37.5204593],[126.8256117,37.5203998],[126.825619,37.5203024],[126.8256174,37.52008],[126.825614,37.5200729],[126.8254988,37.5198295],[126.8254155,37.5196537],[126.8251388,37.5190727],[126.8251357,37.519067],[126.8245919,37.5180461],[126.8244962,37.5177157],[126.8241608,37.5173768],[126.8238207,37.5170226],[126.8238112,37.5170128],[126.8231046,37.5162202],[126.823278,37.5154798],[126.8234013,37.5149534],[126.8237959,37.5146637],[126.8242557,37.5144676],[126.8242992,37.5136677],[126.8243341,37.5135102],[126.8244081,37.5131766],[126.8241471,37.5124404],[126.8238567,37.5108751],[126.8240602,37.5104812],[126.8236896,37.5104902],[126.8231961,37.5104731],[126.8226811,37.5102348],[126.8222284,37.5100612],[126.8215439,37.509954],[126.8215492,37.5094476],[126.8215171,37.5091242],[126.8215739,37.5088016],[126.8224203,37.5060835],[126.8225672,37.5060486],[126.8225653,37.5060002],[126.8225597,37.5056622],[126.8225759,37.5055558],[126.8225137,37.50544],[126.82246,37.5052826],[126.8220415,37.5050379],[126.8218108,37.504457],[126.8219987,37.5041251],[126.82202,37.5038528],[126.8216425,37.5032237],[126.8216177,37.5020993],[126.8207841,37.5017555],[126.8204859,37.5015546],[126.8201855,37.5014355],[126.8197971,37.5010916],[126.8195632,37.5007035],[126.8195632,37.5003119],[126.819561,37.4999851],[126.8195825,37.4996786],[126.8194108,37.4994914],[126.8193679,37.4992701],[126.8190267,37.4990011],[126.8186191,37.4988819],[126.8182307,37.4988104],[126.817868,37.4987798],[126.8175462,37.4984734],[126.817544,37.4982827],[126.8173294,37.4981465],[126.8170526,37.4980988],[126.8167501,37.4979592],[126.8166235,37.4978435],[126.8163209,37.4977379],[126.8159562,37.4976869],[126.815763,37.4976954],[126.815189,37.4980657],[126.8149015,37.4980477],[126.8146386,37.498052],[126.8143629,37.4982997],[126.8143114,37.4983201],[126.8141559,37.4981584],[126.8140969,37.4977881],[126.8140861,37.4974051],[126.8132793,37.4968016],[126.8130271,37.4964314],[126.8139037,37.494945],[126.8140808,37.4947199],[126.8142503,37.4945288],[126.8143254,37.4942224],[126.8143254,37.4940954],[126.8143254,37.4939755],[126.8142846,37.4936644],[126.8144777,37.4934431],[126.8145592,37.4931714],[126.8155074,37.4932985],[126.8159473,37.4926941],[126.8171738,37.4920323],[126.8178362,37.4915591],[126.8178573,37.4916048],[126.8185439,37.4916218],[126.8191555,37.491409],[126.8195525,37.4912813],[126.8200245,37.4911195],[126.8204616,37.4909309],[126.8207541,37.4908046],[126.8208675,37.4907318],[126.8212583,37.4904811],[126.8214761,37.4903636],[126.821533,37.490333],[126.8226938,37.4900035],[126.8227325,37.489749],[126.8230307,37.4893089],[126.8230286,37.4887343],[126.8230205,37.4885767],[126.8230346,37.4884102],[126.8235327,37.4878406],[126.8234258,37.4877243],[126.8232004,37.4874646],[126.8224179,37.4868526],[126.8221789,37.486697],[126.8216532,37.4865353],[126.8214085,37.4863693],[126.8207863,37.4861564],[126.8204644,37.4860798],[126.8199816,37.4859606],[126.8194988,37.4858244],[126.8189946,37.4857137],[126.8189817,37.4855052],[126.8189838,37.4852625],[126.8190804,37.4848879],[126.8191233,37.4845559],[126.8193036,37.4840068],[126.8194001,37.4837684],[126.8194237,37.4834917],[126.8194666,37.4832193],[126.8195417,37.4827425],[126.8196276,37.4822998],[126.8198851,37.4820188],[126.8200567,37.481823],[126.8199709,37.4815591],[126.8198507,37.4812739],[126.8196683,37.4810014],[126.8195846,37.4806992],[126.8194538,37.4805587],[126.8191552,37.4794899],[126.8182543,37.4781961],[126.8172522,37.4781713],[126.816891,37.4779002],[126.8164033,37.4775316],[126.8160967,37.477096],[126.8160978,37.4767078],[126.8153693,37.4763621],[126.8149691,37.4759023],[126.8148339,37.4753207],[126.8146545,37.4747559],[126.814658,37.4745842],[126.8155077,37.4739958],[126.8159091,37.4739535],[126.816027,37.4739411],[126.816602,37.4739771],[126.8170044,37.4736536],[126.8171031,37.4732381],[126.8176693,37.4731126],[126.8178852,37.473657],[126.8182822,37.4738511],[126.8186362,37.474075],[126.8183229,37.4752867],[126.8187797,37.4752114],[126.8189034,37.4753037],[126.8192842,37.4751649],[126.8190675,37.4754927],[126.8190965,37.4759496],[126.8191126,37.4761696],[126.8195042,37.4763612],[126.8200298,37.4761781],[126.8202015,37.4762718],[126.8203571,37.4762548],[126.8208936,37.4762548],[126.8211347,37.4763141],[126.8212902,37.4761736],[126.8217068,37.476225],[126.8216017,37.4753224],[126.821773,37.4752072],[126.8219662,37.4752753],[126.821934,37.4755393],[126.8221754,37.4757819],[126.8225834,37.475795],[126.8227923,37.475948],[126.8231785,37.4759607],[126.8232158,37.4761296],[126.8237045,37.4761356],[126.8239255,37.4764826],[126.8241943,37.4761833],[126.8243482,37.4762888],[126.8261504,37.4762204],[126.8278394,37.4759823],[126.8285529,37.4761185],[126.829261,37.4762548],[126.8296043,37.4765953],[126.829776,37.4769529],[126.8302051,37.4772424],[126.8307416,37.4774808],[126.8313198,37.4776128],[126.8317715,37.477549],[126.8321953,37.4774894],[126.8326191,37.4774128],[126.8330518,37.4772464],[126.8332905,37.4772634],[126.8338805,37.4768292],[126.8341319,37.4763697],[126.8348561,37.4757737],[126.8347488,37.4752927],[126.8346255,37.4748796],[126.8346522,37.4744157],[126.8353174,37.4744029],[126.8357304,37.4743773],[126.8362294,37.4748286],[126.836578,37.4748584],[126.8371365,37.4748286],[126.8383062,37.475403],[126.8389177,37.4753051],[126.8392235,37.4751306],[126.8396848,37.4751944],[126.8398509,37.4748328],[126.8405483,37.4747562],[126.8405797,37.4747506],[126.8409774,37.4746796],[126.8418679,37.4749095],[126.8424794,37.4749265],[126.8425117,37.4749211],[126.8431875,37.4748073],[126.843488,37.4745348],[126.8443784,37.4743134],[126.8450436,37.4742538],[126.8448827,37.4733853],[126.8452307,37.4733458],[126.8453875,37.4743659],[126.8453913,37.4743905],[126.8455483,37.4754119],[126.8458165,37.4778896],[126.8458809,37.4790645],[126.8459882,37.4803416],[126.8461813,37.4811334],[126.8467314,37.4816558],[126.8468358,37.4817549],[126.8475546,37.4820274],[126.848488,37.4820785],[126.8494568,37.4817898],[126.8505801,37.4815251],[126.8515994,37.4815591],[126.8518608,37.4816274],[126.8521799,37.4817107],[126.8524502,37.4817813],[126.8535481,37.4825227],[126.8536593,37.4825978],[126.8538953,37.4829213],[126.8545391,37.4841047],[126.8550465,37.4850846],[126.8556795,37.4855018],[126.8565139,37.4856239],[126.8569531,37.4856882],[126.8576826,37.48585],[126.8582834,37.4864374],[126.8591954,37.4874249],[126.8600644,37.4884635],[126.8608462,37.4893701],[126.8609013,37.489434],[126.8618132,37.4902513],[126.862575,37.4906854],[126.8638978,37.4909587],[126.8645845,37.491197],[126.8651606,37.4915622],[126.8659009,37.4921496],[126.8664239,37.4926794],[126.8666945,37.4929316],[126.8670329,37.4928799],[126.8675244,37.4931947],[126.8677687,37.4936514],[126.8678329,37.494123],[126.8675754,37.4942787],[126.8672294,37.4940039],[126.866958,37.4940543],[126.8668165,37.4942857],[126.8676087,37.494649],[126.8683398,37.4951597],[126.8686867,37.4948434],[126.86945,37.49441],[126.8700519,37.4936184],[126.8694211,37.4928881],[126.8694297,37.4926269],[126.8700498,37.4924559],[126.8700275,37.4922833],[126.8693287,37.4920977],[126.8693633,37.4916532],[126.869912,37.4912958],[126.8700072,37.4908766],[126.8696925,37.4905283],[126.8697474,37.4903679],[126.8702065,37.490148],[126.8701487,37.4897264],[126.8704029,37.4895394],[126.8709572,37.4896394],[126.8714056,37.4898856],[126.8715842,37.4903694],[126.8714308,37.4906658],[126.8717316,37.4908241],[126.8722913,37.4906452],[126.872808,37.4908291],[126.8732124,37.4907918],[126.8738072,37.4912248],[126.8741491,37.4913226],[126.8745176,37.4911744],[126.8746706,37.4908995],[126.8747052,37.4906222],[126.8744887,37.4904298],[126.8744598,37.490274],[126.8746348,37.4900415],[126.874659,37.4898662],[126.8744078,37.4896898],[126.8741537,37.4897402],[126.8741306,37.4901342],[126.8739545,37.4904138],[126.8735878,37.4904779],[126.8733828,37.4903542],[126.8728703,37.4900346],[126.8724357,37.4895477],[126.8724039,37.48933],[126.8726522,37.4889841],[126.8726827,37.4887355],[126.8727672,37.488418],[126.8731566,37.4882677],[126.873885,37.4887336],[126.8744633,37.4888833],[126.8747794,37.4885489],[126.8753119,37.4885487],[126.8757935,37.4890237],[126.8763538,37.4889889],[126.8768062,37.48855],[126.8767263,37.4879357],[126.8766208,37.4877251],[126.8760047,37.4869478],[126.8753368,37.4868685],[126.8752208,37.4868547],[126.8750662,37.4866608],[126.8749872,37.4863676],[126.8750119,37.4859868],[126.8748294,37.4856206],[126.8745278,37.4853174],[126.8741759,37.4851976],[126.8738089,37.4853447],[126.8735531,37.4857924],[126.8730993,37.4862235],[126.8727879,37.486269],[126.8724732,37.4861109]]]},"properties":{"country":"KR","sources":[{"property":"","dataset":"OpenStreetMap","license":"ODbL-1.0","record_id":"r2297418@149","update_time":"2026-07-22T08:58:04Z","confidence":null,"between":null,"provider":"osm","resource":"planet","version":"2026-07-23T00:00:00Z"},{"property":"/properties/names/common/pt-PT","dataset":"Esri Community Maps","license":"CC0-1.0","record_id":"R2297418","update_time":null,"confidence":null,"between":null,"provider":null,"resource":null,"version":null},{"property":"/properties/names/common/pt-BR","dataset":"Esri Community Maps","license":"CC0-1.0","record_id":"R2297418","update_time":null,"confidence":null,"between":null,"provider":null,"resource":null,"version":null},{"property":"/properties/names/common/id","dataset":"Esri Community Maps","license":"CC0-1.0","record_id":"R2297418","update_time":null,"confidence":null,"between":null,"provider":null,"resource":null,"version":null},{"property":"/properties/names/common/sr-Latn","dataset":"Esri Community Maps","license":"CC0-1.0","record_id":"R2297418","update_time":null,"confidence":null,"between":null,"provider":null,"resource":null,"version":null},{"property":"/properties/names/common/da","dataset":"Esri Community Maps","license":"CC0-1.0","record_id":"R2297418","update_time":null,"confidence":null,"between":null,"provider":null,"resource":null,"version":null},{"property":"/properties/names/common/no","dataset":"Esri Community Maps","license":"CC0-1.0","record_id":"R2297418","update_time":null,"confidence":null,"between":null,"provider":null,"resource":null,"version":null},{"property":"/properties/names/rules/18","dataset":"Esri Community Maps","license":"CC0-1.0","record_id":"R2297418","update_time":null,"confidence":null,"between":null,"provider":null,"resource":null,"version":null},{"property":"/properties/names/rules/19","dataset":"Esri Community Maps","license":"CC0-1.0","record_id":"R2297418","update_time":null,"confidence":null,"between":null,"provider":null,"resource":null,"version":null},{"property":"/properties/names/rules/20","dataset":"Esri Community Maps","license":"CC0-1.0","record_id":"R2297418","update_time":null,"confidence":null,"between":null,"provider":null,"resource":null,"version":null},{"property":"/properties/names/rules/21","dataset":"Esri Community Maps","license":"CC0-1.0","record_id":"R2297418","update_time":null,"confidence":null,"between":null,"provider":null,"resource":null,"version":null},{"property":"/properties/names/rules/22","dataset":"Esri Community Maps","license":"CC0-1.0","record_id":"R2297418","update_time":null,"confidence":null,"between":null,"provider":null,"resource":null,"version":null},{"property":"/properties/names/rules/23","dataset":"Esri Community Maps","license":"CC0-1.0","record_id":"R2297418","update_time":null,"confidence":null,"between":null,"provider":null,"resource":null,"version":null},{"property":"/properties/names/rules/24","dataset":"Esri Community Maps","license":"CC0-1.0","record_id":"R2297418","update_time":null,"confidence":null,"between":null,"provider":null,"resource":null,"version":null}],"subtype":"region","admin_level":1,"class":"land","names":{"primary":"서울특별시","common":[["hy","Սեուլ"],["ku","Sêûl"],["rue","Соул"],["crh","Seul"],["bs","Seul"],["ba","Сеул"],["hr","Seul"],["ta","சியோல்"],["ka","სეული"],["ar","سول"],["yue","首爾"],["fr","Séoul"],["is","Seúl"],["nah","Seul"],["lv","Seula"],["eu","Seul"],["am","ሶል"],["bn","সিওল"],["uz","Seul"],["csb","Seul"],["uk","Сеул"],["szl","Seul"],["dsb","Soul"],["ky","Сеул"],["gan","首爾"],["pt-PT","Seul"],["pt","Seul"],["tpi","Sol"],["cs","Soul"],["roa-tara","Seul"],["gl","Seúl"],["el","Σεούλ"],["it","Seul"],["ca","Seül"],["pt-BR","Seul"],["os","Сеул"],["ko-Kana","ソウルトゥクビョルシ"],["vi","Seoul"],["la","Seulum"],["tg","Сеул"],["nl","Seoel"],["zh-Hans","首尔特别市"],["bg","Сеул"],["ckb","سۆل"],["ko","서울특별시"],["eo","Seulo"],["tk","Seul"],["mk","Сеул"],["cdo","Siū-ék"],["oc","Seol"],["et","Soul"],["af","Seoel"],["gag","Seul"],["de","Seoul"],["yi","סעאל"],["cy","Seoul"],["bjn","Soul"],["be-Latn-tarask","Сэул"],["diq","Seul"],["cv","Сеул"],["ur","سؤل"],["nan","Seoul Te̍k-pia̍t-chhī"],["bat-smg","Seuls"],["jbo",".sol."],["ru","Сеул"],["vro","Sŏul"],["ml","സോൾ"],["th","โซล"],["id","Seoul"],["pnb","سیول"],["arz","سول"],["lzh","首爾"],["sr-Latn","Seul"],["ko-Latn","Seoul"],["sv","Seoul"],["tr","Seul"],["da","Seoul"],["my","ဆိုးလ်မြို့"],["sr-Cyrl","Сеул"],["zh-Hant","首爾特別市"],["en","Seoul"],["he","סיאול"],["bh","सियोल"],["sah","Сеул"],["kn","ಸೌಲ್"],["sk","Soul"],["az","Seul"],["es","Seúl"],["hi","सियोल"],["vo","Söul"],["mr","सोल"],["ext","Seúl"],["an","Seúl"],["be","Сеул"],["qu","Siul"],["ja","ソウル特別市"],["ast","Seúl"],["fi","Soul"],["bo","སེ་ཨུལ།"],["ro","Seul"],["mhr","Сеул"],["lt","Seulas"],["no","Seoul"],["wuu","首尔"],["km","សេអ៊ូល"],["kk","Сеул"],["sl","Seul"],["fa","سئول"],["mn","Сөүл"],["hu","Szöul"],["pl","Seul"]],"rules":[{"variant":"official","language":null,"perspectives":null,"value":"서울특별시","between":null,"side":null},{"variant":"official","language":"en","perspectives":null,"value":"Seoul Special City","between":null,"side":null},{"variant":"official","language":"zh","perspectives":null,"value":"首尔特别市","between":null,"side":null},{"variant":"alternate","language":"vi","perspectives":null,"value":"Xơ-un","between":null,"side":null},{"variant":"short","language":"ko","perspectives":null,"value":"서울","between":null,"side":null},{"variant":"short","language":null,"perspectives":null,"value":"서울","between":null,"side":null},{"variant":"official","language":"ko-Latn","perspectives":null,"value":"Seoul-teukbyeolsi","between":null,"side":null},{"variant":"alternate","language":"zh","perspectives":null,"value":"汉城 / 漢城","between":null,"side":null},{"variant":"short","language":"zh","perspectives":null,"value":"首尔","between":null,"side":null},{"variant":"alternate","language":"zh-Hans","perspectives":null,"value":"汉城","between":null,"side":null},{"variant":"alternate","language":"ar","perspectives":null,"value":"سيول","between":null,"side":null},{"variant":"alternate","language":"ar","perspectives":null,"value":"سيئول","between":null,"side":null},{"variant":"official","language":"ko-Kore","perspectives":null,"value":"서울特別市","between":null,"side":null},{"variant":"alternate","language":"ur","perspectives":null,"value":"سیول","between":null,"side":null},{"variant":"alternate","language":"vi","perspectives":null,"value":"Thủ Nhĩ","between":null,"side":null},{"variant":"alternate","language":"zh-Hant","perspectives":null,"value":"漢城","between":null,"side":null},{"variant":"official","language":"ar","perspectives":null,"value":"مدينة سول الخاصة","between":null,"side":null},{"variant":"alternate","language":"nl","perspectives":null,"value":"Seoul","between":null,"side":null},{"variant":"alternate","language":"zh-Hans","perspectives":null,"value":"首尔","between":null,"side":null},{"variant":"alternate","language":"ko","perspectives":null,"value":"서울","between":null,"side":null},{"variant":"alternate","language":"et","perspectives":null,"value":"Sŏul","between":null,"side":null},{"variant":"alternate","language":"zh-Hant","perspectives":null,"value":"首爾","between":null,"side":null},{"variant":"alternate","language":"ja","perspectives":null,"value":"ソウル","between":null,"side":null},{"variant":"alternate","language":null,"perspectives":null,"value":"서울","between":null,"side":null}]},"is_land":true,"is_territorial":true,"region":"KR-11","division_id":"6eb44261-33e3-438c-98fc-f78a6d2d9c80","version":8}}]}
